{
"type": "FeatureCollection",
"name": "aoi_riti",
"crs": { "type": "name", "properties": { "name": "urn:ogc:def:crs:OGC:1.3:CRS84" } },
"features": [
{ "type": "Feature", "properties": { "name": "RiTi Organic Farm — 12 lô", "area_ha": 8.8479, "perimeter_m": 1485.9 }, "geometry": { "type": "Polygon", "coordinates": [ [ [ 105.851231156300088, 20.25676388806637 ], [ 105.851231175081807, 20.25676399935552 ], [ 105.851246676906271, 20.256833078798646 ], [ 105.851246705179008, 20.25683318072279 ], [ 105.851246787118527, 20.256833252283133 ], [ 105.851271876538135, 20.256853168746694 ], [ 105.851271971222602, 20.256853236446144 ], [ 105.851272085741385, 20.256853206650714 ], [ 105.851315590596954, 20.256839601958099 ], [ 105.851316042596579, 20.256839483461551 ], [ 105.851316504715655, 20.256839407283685 ], [ 105.851316972516571, 20.256839374156012 ], [ 105.851317441507192, 20.256839384396645 ], [ 105.85131790718394, 20.256839437907256 ], [ 105.851318365075031, 20.256839534173995 ], [ 105.851318810783511, 20.256839672272442 ], [ 105.851319240029341, 20.256839850876478 ], [ 105.851319648690605, 20.256840068271011 ], [ 105.851320032843049, 20.256840322368475 ], [ 105.851320388797788, 20.25684061072884 ], [ 105.851320713136644, 20.256840930583074 ], [ 105.851365853662045, 20.256890054932626 ], [ 105.851366155552881, 20.256890419648244 ], [ 105.851366416321824, 20.256890811596957 ], [ 105.851366633232345, 20.256891226665662 ], [ 105.851366804008222, 20.256891660498646 ], [ 105.85136692685731, 20.256892108543259 ], [ 105.851367000490455, 20.256892566097747 ], [ 105.851367024134944, 20.256893028360519 ], [ 105.851366997542641, 20.256893490480625 ], [ 105.851359453365916, 20.256960727352553 ], [ 105.851359446871172, 20.256960833148774 ], [ 105.851359502046577, 20.256960925447988 ], [ 105.851378816346738, 20.256989916960094 ], [ 105.851378884100797, 20.256990008291385 ], [ 105.851378961093545, 20.256990092851648 ], [ 105.851639015270763, 20.25724862757863 ], [ 105.851639330502422, 20.257248974547 ], [ 105.851639606973919, 20.257249349796744 ], [ 105.851689831800485, 20.257325463950494 ], [ 105.851689892948215, 20.257325547904117 ], [ 105.8516899618824, 20.257325626301519 ], [ 105.851872257701032, 20.25751484012336 ], [ 105.85187258445589, 20.257515218471383 ], [ 105.851872866052773, 20.257515627877599 ], [ 105.851903656817058, 20.257566178772002 ], [ 105.851903711762674, 20.257566260620447 ], [ 105.851903780512785, 20.257566332098779 ], [ 105.852127161375904, 20.257779540318253 ], [ 105.852127247584733, 20.257779614698091 ], [ 105.852127278607028, 20.257779603383817 ], [ 105.852127713641735, 20.257779466928234 ], [ 105.852128160512521, 20.257779370367842 ], [ 105.85212861512143, 20.25777931458812 ], [ 105.852129073299594, 20.257779300100594 ], [ 105.85212953084536, 20.257779327038119 ], [ 105.852129983562889, 20.257779395153669 ], [ 105.852130427300622, 20.257779503822608 ], [ 105.852130857989337, 20.257779652048391 ], [ 105.852131271679511, 20.257779838471766 ], [ 105.852131664577442, 20.257780061383151 ], [ 105.852132033080167, 20.257780318738401 ], [ 105.852132373808374, 20.257780608177466 ], [ 105.852132683637507, 20.257780927046117 ], [ 105.852132959726333, 20.257781272420214 ], [ 105.852133146807788, 20.257781531367524 ], [ 105.852191009480777, 20.257853909401472 ], [ 105.852191247913524, 20.257854236627395 ], [ 105.852191454974843, 20.257854582349015 ], [ 105.852191629064805, 20.257854943894998 ], [ 105.852214677868858, 20.257909001621456 ], [ 105.85221472172384, 20.257909092550616 ], [ 105.852214796336341, 20.257909163145737 ], [ 105.852264948415268, 20.257952593769836 ], [ 105.852265243293985, 20.257952872423949 ], [ 105.852265511337805, 20.257953174253803 ], [ 105.852327123982363, 20.258029038689088 ], [ 105.852327431640504, 20.258029466082451 ], [ 105.852327685575943, 20.258029923831586 ], [ 105.852362394208754, 20.258102283047137 ], [ 105.852362452870167, 20.258102389694571 ], [ 105.852362544312598, 20.258102473309787 ], [ 105.852392725585204, 20.258127248347478 ], [ 105.852393036090632, 20.258127527237487 ], [ 105.852393318915887, 20.258127831221238 ], [ 105.852393571793328, 20.258128157861474 ], [ 105.852393792695466, 20.258128504539275 ], [ 105.852393979851158, 20.258128868475072 ], [ 105.852428494345389, 20.258204420633046 ], [ 105.852428540779073, 20.258204510926134 ], [ 105.852428617689014, 20.258204579955166 ], [ 105.852458949803903, 20.258229478799031 ], [ 105.852459275303545, 20.258229772485738 ], [ 105.852459570120686, 20.258230093736742 ], [ 105.852459831646485, 20.258230439709315 ], [ 105.852460057566731, 20.258230807341953 ], [ 105.85258788242686, 20.258463375059296 ], [ 105.852587983453603, 20.258463541219093 ], [ 105.852692514309538, 20.258619718093122 ], [ 105.852692746170533, 20.258620105543766 ], [ 105.852692936518523, 20.258620512639929 ], [ 105.852693083506992, 20.258620935432468 ], [ 105.852704527541121, 20.258660301118539 ], [ 105.852704562572484, 20.258660402394945 ], [ 105.852704643015386, 20.258660477140214 ], [ 105.852741755253533, 20.258691811931822 ], [ 105.852742088151331, 20.258692121933699 ], [ 105.852742387407019, 20.25869246111068 ], [ 105.852742650164501, 20.258692826225658 ], [ 105.852742873916, 20.258693213793961 ], [ 105.852743056526052, 20.258693620116638 ], [ 105.852743196251808, 20.258694041315731 ], [ 105.852743291759708, 20.258694473371307 ], [ 105.85274334213824, 20.258694912159829 ], [ 105.852743346906593, 20.258695353493479 ], [ 105.852739551155878, 20.258787937932105 ], [ 105.852739552745589, 20.258788053261661 ], [ 105.852739603298488, 20.258788158272175 ], [ 105.852805579473511, 20.258908306901745 ], [ 105.852805640838625, 20.258908405888796 ], [ 105.852805731064933, 20.258908482713704 ], [ 105.852826927107785, 20.258924752096995 ], [ 105.852827019304158, 20.258924816068092 ], [ 105.852827132497552, 20.25892480020519 ], [ 105.852862397593569, 20.258918183504242 ], [ 105.852862863733478, 20.258918118358118 ], [ 105.852863334401988, 20.258918096775247 ], [ 105.852863805038808, 20.258918118964761 ], [ 105.852864271083988, 20.258918184711657 ], [ 105.852864728022041, 20.258918293378908 ], [ 105.852865171425719, 20.258918443913672 ], [ 105.85286559699891, 20.258918634857391 ], [ 105.852866000618249, 20.258918864360048 ], [ 105.852866378373108, 20.258919130198006 ], [ 105.852866726603452, 20.258919429795561 ], [ 105.852867041935269, 20.258919760249949 ], [ 105.85286732131334, 20.258920118359395 ], [ 105.852867562030809, 20.258920500654213 ], [ 105.852904715916736, 20.258986725996756 ], [ 105.852904772235476, 20.258986815595641 ], [ 105.852904868276127, 20.258986764232208 ], [ 105.852990149204459, 20.258935851825548 ], [ 105.852990431124553, 20.258935654771605 ], [ 105.85368803950459, 20.258368704657272 ], [ 105.85368811987604, 20.258368632797559 ], [ 105.853688104786457, 20.258368529290106 ], [ 105.853678428146381, 20.258319507809169 ], [ 105.853678402918376, 20.258319407684024 ], [ 105.853678315027466, 20.258319468612552 ], [ 105.853638984042377, 20.258349657893074 ], [ 105.853638607425637, 20.25834991921004 ], [ 105.853638205597889, 20.258350144617694 ], [ 105.853637782390493, 20.258350331966817 ], [ 105.853637341838606, 20.258350479471083 ], [ 105.853636888142802, 20.25835058572407 ], [ 105.853636425628963, 20.258350649712689 ], [ 105.853635958707017, 20.258350670826815 ], [ 105.853635491828982, 20.258350648865147 ], [ 105.853635029446409, 20.258350584037068 ], [ 105.853634575968016, 20.258350476960697 ], [ 105.853634135717598, 20.258350328656995 ], [ 105.853633712892858, 20.258350140539992 ], [ 105.853633311525314, 20.258349914403336 ], [ 105.853632935441894, 20.258349652403197 ], [ 105.853632588228493, 20.258349357037673 ], [ 105.853615672998572, 20.258333488167871 ], [ 105.853615355346079, 20.258333159259156 ], [ 105.853615073524693, 20.258332802453246 ], [ 105.853614830268981, 20.258332421212305 ], [ 105.853614627939294, 20.258332019235542 ], [ 105.853614468498861, 20.258331600423425 ], [ 105.853614353494763, 20.258331168839717 ], [ 105.853614284042862, 20.258330728672142 ], [ 105.85361426081711, 20.258330284191718 ], [ 105.853614260817182, 20.257996728388239 ], [ 105.853614255986315, 20.25799662734935 ], [ 105.853614222717667, 20.25799653120394 ], [ 105.853603563532573, 20.257969864961698 ], [ 105.853603424215535, 20.257969459445029 ], [ 105.853603326020675, 20.257969043341536 ], [ 105.853603269822287, 20.257968620356138 ], [ 105.853603256120763, 20.257968194255042 ], [ 105.853603285038091, 20.257967768832167 ], [ 105.85360335631681, 20.257967347875418 ], [ 105.853603469322252, 20.257966935132917 ], [ 105.853603623048244, 20.25796653427966 ], [ 105.853603816126039, 20.25796614888478 ], [ 105.85360404683648, 20.257965782379774 ], [ 105.853604313125402, 20.257965438027931 ], [ 105.853618075787097, 20.257949298842441 ], [ 105.853618142918023, 20.257949211812051 ], [ 105.853618148436951, 20.257949104291654 ], [ 105.853618148436951, 20.257738140375967 ], [ 105.853618173194235, 20.257737681510555 ], [ 105.853618247210022, 20.257737227391189 ], [ 105.853649228457726, 20.257595535988397 ], [ 105.853649244876721, 20.257595440103039 ], [ 105.85364923465788, 20.25759534345373 ], [ 105.853644687388837, 20.257565481458482 ], [ 105.853644643362557, 20.257565037947739 ], [ 105.853644645832546, 20.257564592501243 ], [ 105.853644694774786, 20.257564149449617 ], [ 105.853644789713485, 20.257563713100186 ], [ 105.853644929725618, 20.257563287695156 ], [ 105.853645113450014, 20.257562877370301 ], [ 105.85364533910051, 20.257562486114793 ], [ 105.853645604483305, 20.257562117732409 ], [ 105.853645907018375, 20.257561775804572 ], [ 105.853646243764459, 20.257561463655485 ], [ 105.853646611447729, 20.257561184319865 ], [ 105.853647006493574, 20.257560940513407 ], [ 105.853647181878841, 20.25756085423572 ], [ 105.853647300813634, 20.257560788806561 ], [ 105.853647331050823, 20.257560685855982 ], [ 105.853668291314889, 20.257473092626963 ], [ 105.853668423998442, 20.257472646166914 ], [ 105.853668604475317, 20.25747221489307 ], [ 105.853668830844327, 20.257471803348547 ], [ 105.853669100720865, 20.257471415868633 ], [ 105.85366941126199, 20.25747105653512 ], [ 105.853669759196421, 20.257470729133303 ], [ 105.853670140858938, 20.257470437112087 ], [ 105.85369646512396, 20.257452326704271 ], [ 105.853696856625163, 20.257452084117283 ], [ 105.853697271371274, 20.257451878793699 ], [ 105.853697705392619, 20.257451712698725 ], [ 105.853698154535067, 20.257451587422121 ], [ 105.853698614499748, 20.257451504162933 ], [ 105.853699080884212, 20.257451463718056 ], [ 105.853699549224572, 20.257451466474606 ], [ 105.85397768733138, 20.257465962819271 ], [ 105.853977819297413, 20.257465966255594 ], [ 105.854012628393548, 20.257465966255591 ], [ 105.854012739148317, 20.257465961298927 ], [ 105.85401280804075, 20.257465879309787 ], [ 105.854015195901809, 20.257462743081913 ], [ 105.85401549504077, 20.257462389075997 ], [ 105.854015830225933, 20.257462065105511 ], [ 105.854016198090449, 20.257461774424637 ], [ 105.854016594939253, 20.257461519953157 ], [ 105.854017016786131, 20.257461304247162 ], [ 105.854017459393773, 20.257461129473345 ], [ 105.85401791831633, 20.257460997387234 ], [ 105.85401838894407, 20.257460909315604 ], [ 105.854018866549708, 20.257460866143106 ], [ 105.854019346335861, 20.257460868303383 ], [ 105.854019823483227, 20.257460915774747 ], [ 105.854020293199056, 20.257461008080355 ], [ 105.854020750765144, 20.257461144293035 ], [ 105.85402119158546, 20.257461323044577 ], [ 105.854021611232071, 20.257461542539481 ], [ 105.854022005489767, 20.257461800572976 ], [ 105.854022370398397, 20.25746209455324 ], [ 105.854022702292554, 20.257462421527304 ], [ 105.85402299783847, 20.257462778210847 ], [ 105.854044913579415, 20.2574921498789 ], [ 105.854045174468851, 20.257492540510313 ], [ 105.854045391744364, 20.257492954232251 ], [ 105.854045563136268, 20.257493386722878 ], [ 105.854045686854164, 20.257493833464331 ], [ 105.854045761605661, 20.257494289789829 ], [ 105.854045786609888, 20.257494750932523 ], [ 105.854045786609888, 20.257518049653701 ], [ 105.854045768224793, 20.257518445213247 ], [ 105.854045713210752, 20.257518837734541 ], [ 105.854045621990281, 20.257519224202689 ], [ 105.854045495264074, 20.257519601649275 ], [ 105.854030831434045, 20.257557432877871 ], [ 105.85403064639263, 20.257557845572013 ], [ 105.85403041893791, 20.257558238936106 ], [ 105.854030151307811, 20.257558609099977 ], [ 105.854029846135433, 20.257558952421665 ], [ 105.854029506423274, 20.25755926552333 ], [ 105.854029135513699, 20.257559545324465 ], [ 105.854028737055941, 20.257559789072168 ], [ 105.853983681409204, 20.257584445846337 ], [ 105.853983589480862, 20.257584501722789 ], [ 105.853983572275183, 20.257584603628292 ], [ 105.8539797097133, 20.257617216430642 ], [ 105.853979702588191, 20.257617321713539 ], [ 105.853979765858909, 20.257617408687715 ], [ 105.854063212262957, 20.257721181597386 ], [ 105.854063283456895, 20.257721261920839 ], [ 105.854063394397713, 20.257721264074185 ], [ 105.854207001333165, 20.257717622882716 ], [ 105.854207243369572, 20.257717605115971 ], [ 105.854504144272923, 20.257681431605761 ], [ 105.854504627089881, 20.257681396088557 ], [ 105.854505111238751, 20.257681406786912 ], [ 105.854505591765019, 20.257681463591339 ], [ 105.854506063751202, 20.257681565920532 ], [ 105.854506522367217, 20.257681712727308 ], [ 105.854506962919814, 20.257681902509304 ], [ 105.854507380900586, 20.257682133324398 ], [ 105.854507772032122, 20.25768240281052 ], [ 105.854508132311778, 20.257682708209902 ], [ 105.854522768509, 20.257696439083272 ], [ 105.854523080599037, 20.257696761642507 ], [ 105.854523358222764, 20.257697111136249 ], [ 105.85452359878505, 20.257697484297559 ], [ 105.854523800037214, 20.25769787763824 ], [ 105.854523960098007, 20.257698287481482 ], [ 105.854524077471225, 20.257698709996227 ], [ 105.854524151059707, 20.257699141232923 ], [ 105.854527838598756, 20.257730276240313 ], [ 105.854527856719415, 20.257730382429333 ], [ 105.854527933569386, 20.257730461857285 ], [ 105.854561368619727, 20.257761828767652 ], [ 105.85456168627114, 20.257762157676364 ], [ 105.854561968091545, 20.25776251448227 ], [ 105.854562211346419, 20.257762895723218 ], [ 105.854562413675424, 20.257763297699992 ], [ 105.854562573115317, 20.257763716512144 ], [ 105.854562688119046, 20.257764148095887 ], [ 105.854562757570704, 20.257764588263498 ], [ 105.854562780796385, 20.257765032743972 ], [ 105.854562757570733, 20.257765477224446 ], [ 105.854562688119103, 20.257765917392064 ], [ 105.854562573115416, 20.25776634897581 ], [ 105.854562413675538, 20.257766767787977 ], [ 105.854562211346561, 20.257767169764769 ], [ 105.854561968091716, 20.257767551005735 ], [ 105.85456168627131, 20.257767907811647 ], [ 105.854561368619898, 20.25776823672037 ], [ 105.85455514704681, 20.257774073453508 ], [ 105.854555073921844, 20.257774149043868 ], [ 105.854555170624423, 20.257774195388848 ], [ 105.854654094747559, 20.257816048667493 ], [ 105.854654199856938, 20.257816087562166 ], [ 105.854654312147957, 20.257816076501953 ], [ 105.854704609570746, 20.257808817081621 ], [ 105.85470473595818, 20.257808792145987 ], [ 105.854704853675244, 20.257808742079092 ], [ 105.854891188477708, 20.257717695747274 ], [ 105.854891485955378, 20.257717523301693 ], [ 105.85500342973512, 20.257641474705611 ], [ 105.855003878860174, 20.257641204078897 ], [ 105.855004357073781, 20.25764098223377 ], [ 105.855004858450883, 20.257640811918883 ], [ 105.855081724257744, 20.257619178531584 ], [ 105.85508183424929, 20.257619141919427 ], [ 105.855081920913477, 20.257619068258059 ], [ 105.855100164413287, 20.257601953203789 ], [ 105.8551005073586, 20.257601661129755 ], [ 105.855100878537669, 20.25760140160935 ], [ 105.855101274494203, 20.257601177059115 ], [ 105.855101691541279, 20.257600989569958 ], [ 105.855102125795483, 20.257600840887694 ], [ 105.855102573213287, 20.257600732396792 ], [ 105.855103029628509, 20.257600665107461 ], [ 105.855103490791237, 20.257600639646267 ], [ 105.855103952407319, 20.2576006562503 ], [ 105.855104410178399, 20.257600714764958 ], [ 105.85510485984193, 20.257600814645361 ], [ 105.855105035743335, 20.25760087107782 ], [ 105.855105162544035, 20.25760090504081 ], [ 105.85510526914517, 20.257600860192458 ], [ 105.855898178718107, 20.257221634701267 ], [ 105.855898294403246, 20.257221575545255 ], [ 105.856148886942592, 20.257084893615712 ], [ 105.856148981334584, 20.257084836109726 ], [ 105.856148929646096, 20.257084741968274 ], [ 105.855406527230286, 20.255881388442386 ], [ 105.85540636491622, 20.255881158883032 ], [ 105.855334606529468, 20.255792004619533 ], [ 105.855334530041461, 20.255791919039492 ], [ 105.85533441276668, 20.25579193593591 ], [ 105.854631436163046, 20.255928196616498 ], [ 105.854630949718626, 20.255928266541748 ], [ 105.854630458237935, 20.255928288974335 ], [ 105.85462996691345, 20.255928263677276 ], [ 105.854629480935969, 20.255928190917832 ], [ 105.854629005439804, 20.255928071464691 ], [ 105.854628545448548, 20.255927906579881 ], [ 105.854628105821959, 20.255927698005394 ], [ 105.854627691204684, 20.255927447944792 ], [ 105.85462730597709, 20.255927159039953 ], [ 105.854627016548292, 20.255926891884876 ], [ 105.854626983977909, 20.255926864417713 ], [ 105.854626872308472, 20.255926879151193 ], [ 105.854300492093145, 20.255985202074115 ], [ 105.854300360129429, 20.255985229317321 ], [ 105.854238329761017, 20.255999777844416 ], [ 105.854238226471608, 20.255999806848017 ], [ 105.85423815439519, 20.255999882267055 ], [ 105.854227128942597, 20.256012524425763 ], [ 105.854226809049891, 20.256012856184725 ], [ 105.854226455873317, 20.25601315637185 ], [ 105.854226072894434, 20.256013422027952 ], [ 105.85422566388857, 20.256013650534221 ], [ 105.854225232887657, 20.256013839638076 ], [ 105.854224784140456, 20.256013987475356 ], [ 105.854224322070635, 20.256014092588714 ], [ 105.854223851233186, 20.256014153941948 ], [ 105.854223376269587, 20.256014170930253 ], [ 105.854222901861959, 20.256014143386153 ], [ 105.854222432686925, 20.256014071581195 ], [ 105.854221973369562, 20.256013956223192 ], [ 105.854221528437733, 20.256013798449345 ], [ 105.854221102277506, 20.25601359981496 ], [ 105.854220699089922, 20.256013362278146 ], [ 105.854220322849542, 20.256013088180499 ], [ 105.854219977265288, 20.256012780224047 ], [ 105.854219665743884, 20.256012441444568 ], [ 105.854219391356239, 20.256012075181705 ], [ 105.854219156807247, 20.256011685046019 ], [ 105.854218964409043, 20.256011274883399 ], [ 105.854218853123029, 20.256010955207874 ], [ 105.854218852930856, 20.256010955267275 ], [ 105.854218781719922, 20.256010750095175 ], [ 105.854218670413047, 20.256010761850213 ], [ 105.853824306611884, 20.256070905456998 ], [ 105.853824193708846, 20.256070928010164 ], [ 105.853824074846059, 20.256070963366753 ], [ 105.853823858744633, 20.256071038394904 ], [ 105.853823399567844, 20.256071150616108 ], [ 105.853822930877229, 20.256071219403584 ], [ 105.853822457274063, 20.256071244082062 ], [ 105.853821983407784, 20.256071224409229 ], [ 105.85382151393047, 20.256071160578244 ], [ 105.853821053451085, 20.256071053215745 ], [ 105.853820606490245, 20.256070903375729 ], [ 105.853820177435907, 20.256070712529219 ], [ 105.853819770500166, 20.256070482549788 ], [ 105.853819389678009, 20.25607021569521 ], [ 105.853819038708053, 20.25606991458524 ], [ 105.853818721035879, 20.256069582175975 ], [ 105.853818439780113, 20.256069221730726 ], [ 105.853818357927608, 20.256069105147677 ], [ 105.853818243733869, 20.256069116321786 ], [ 105.853542455637339, 20.256109201539019 ], [ 105.853542341551233, 20.256109223559847 ], [ 105.853542234181717, 20.25610926609971 ], [ 105.853489964390221, 20.256132876570888 ], [ 105.853489867006942, 20.256132926319268 ], [ 105.853489947619082, 20.256132997967942 ], [ 105.853490782821439, 20.2561336695812 ], [ 105.853491126869272, 20.256133975145801 ], [ 105.853491437325957, 20.256134311226425 ], [ 105.853491711167777, 20.256134674549713 ], [ 105.853491945727555, 20.256135061577023 ], [ 105.853492138720782, 20.256135468538826 ], [ 105.853492288267745, 20.256135891471423 ], [ 105.853492392911903, 20.256136326255579 ], [ 105.853492451634054, 20.256136768656617 ], [ 105.853492463862239, 20.256137214365694 ], [ 105.853492429477413, 20.25613765904172 ], [ 105.853492348814413, 20.256138098353691 ], [ 105.853492222658886, 20.25613852802282 ], [ 105.853492052239574, 20.256138943864286 ], [ 105.853491839216304, 20.256139341827893 ], [ 105.853491585663861, 20.256139718037588 ], [ 105.85349129405175, 20.256140068829215 ], [ 105.85349096722021, 20.256140390786157 ], [ 105.853490608352473, 20.256140680772649 ], [ 105.853490220943797, 20.2561409359643 ], [ 105.853489808767463, 20.256141153875628 ], [ 105.853450393761875, 20.256159642551061 ], [ 105.85344994540344, 20.256159826554033 ], [ 105.853449479496277, 20.256159966439903 ], [ 105.853449000900113, 20.256160060749576 ], [ 105.853448514606995, 20.256160108499348 ], [ 105.853448025689232, 20.256160109191153 ], [ 105.853447539246559, 20.256160062817788 ], [ 105.85339861487499, 20.256153001494237 ], [ 105.853398498192092, 20.256152990185051 ], [ 105.853398383099659, 20.256153011544114 ], [ 105.853259280203915, 20.25618563653104 ], [ 105.853258787748302, 20.256185726477153 ], [ 105.853258288023142, 20.256185767301822 ], [ 105.853257786514689, 20.256185758556857 ], [ 105.853204230233644, 20.256182169696903 ], [ 105.853204117578628, 20.256182167204059 ], [ 105.853204008715721, 20.256182194669037 ], [ 105.853103854454105, 20.25621233281851 ], [ 105.853103415567347, 20.25621244353508 ], [ 105.853102967535932, 20.25621251449191 ], [ 105.85310251439472, 20.256212545049994 ], [ 105.853102060224529, 20.256212534934125 ], [ 105.853101609115484, 20.256212484235419 ], [ 105.853101165130113, 20.256212393410433 ], [ 105.853100732266796, 20.256212263277117 ], [ 105.85310031442377, 20.256212095007406 ], [ 105.853099915363984, 20.256211890116681 ], [ 105.853099538681235, 20.256211650450133 ], [ 105.853099187767825, 20.256211378166093 ], [ 105.853099149100728, 20.256211345139853 ], [ 105.853099034228947, 20.256211350563152 ], [ 105.853060395435023, 20.256214975476279 ], [ 105.853060277475805, 20.256214992259295 ], [ 105.85306018288253, 20.25621506085113 ], [ 105.85303457729708, 20.256235651115894 ], [ 105.853034203737124, 20.256235922710911 ], [ 105.853033803675004, 20.256236158303921 ], [ 105.853033380992557, 20.256236355608916 ], [ 105.853032939791177, 20.256236512711411 ], [ 105.853032484351957, 20.256236628086995 ], [ 105.853032019094101, 20.25623670061616 ], [ 105.85303154853213, 20.256236729595145 ], [ 105.853031077232004, 20.256236714742737 ], [ 105.852986546149026, 20.256233233325943 ], [ 105.852986410915719, 20.256233230046785 ], [ 105.852986278392947, 20.256233255681241 ], [ 105.852578351404617, 20.256335308502013 ], [ 105.852578066879929, 20.25633537098043 ], [ 105.852174015354393, 20.256411912362175 ], [ 105.852173900360015, 20.2564119398671 ], [ 105.852173805864169, 20.256412007550132 ], [ 105.852155612602616, 20.256426449750901 ], [ 105.852155236256294, 20.256426719719315 ], [ 105.85215483353052, 20.25642695334237 ], [ 105.852154408352362, 20.256427148341952 ], [ 105.852153964867796, 20.256427302816579 ], [ 105.852153507401354, 20.256427415259935 ], [ 105.85215304041391, 20.256427484575568 ], [ 105.852152568459132, 20.256427510087551 ], [ 105.852152096139164, 20.256427491547118 ], [ 105.852151628059701, 20.256427429135066 ], [ 105.852151168785099, 20.256427323459981 ], [ 105.852150722793837, 20.256427175552322 ], [ 105.852150294434864, 20.256426986854386 ], [ 105.852149887885204, 20.256426759206185 ], [ 105.852149507109218, 20.256426494827579 ], [ 105.852149155819944, 20.256426196296584 ], [ 105.852148837442854, 20.256425866524232 ], [ 105.85214855508255, 20.25642550872621 ], [ 105.852146750062687, 20.25642296865006 ], [ 105.852146681789236, 20.256422882114219 ], [ 105.852146568806361, 20.256422898580009 ], [ 105.851789155073646, 20.256492147079307 ], [ 105.851788895473817, 20.256492211899371 ], [ 105.851563708143999, 20.25656141773586 ], [ 105.851563384360091, 20.256561542643613 ], [ 105.851493678997812, 20.256594239741947 ], [ 105.851493568258434, 20.25659429886058 ], [ 105.851493473357792, 20.256594378834013 ], [ 105.851447592533049, 20.256637421992444 ], [ 105.851447241190087, 20.256637720539491 ], [ 105.851446860356006, 20.256637984925302 ], [ 105.851446453745154, 20.256638212571222 ], [ 105.851446025323384, 20.256638401256954 ], [ 105.851295423227498, 20.256696365365222 ], [ 105.85129529945668, 20.256696421040488 ], [ 105.851295183280683, 20.256696489762493 ], [ 105.851254563758999, 20.256723709217169 ], [ 105.851254479241703, 20.256723771453157 ], [ 105.851254423630863, 20.256723857705019 ], [ 105.851231208357206, 20.256763786646609 ], [ 105.851231156300088, 20.25676388806637 ] ], [ [ 105.854039899276231, 20.256576558278443 ], [ 105.854039606267278, 20.256576207500835 ], [ 105.854039351394434, 20.256575831132384 ], [ 105.85403913714903, 20.256575432852046 ], [ 105.854038965625293, 20.256575016552937 ], [ 105.854038838499832, 20.256574586304311 ], [ 105.854038757015275, 20.256574146311788 ], [ 105.854038721968138, 20.256573700876224 ], [ 105.854038733700975, 20.256573254351675 ], [ 105.854038792099104, 20.256572811102856 ], [ 105.854038896591703, 20.256572375462451 ], [ 105.854039046157382, 20.256571951688766 ], [ 105.854039239334142, 20.256571543924139 ], [ 105.854039474233716, 20.256571156154394 ], [ 105.854039748559998, 20.25657079216991 ], [ 105.854040059631487, 20.256570455528593 ], [ 105.854040404407513, 20.25657014952105 ], [ 105.854040779517945, 20.256569877138453 ], [ 105.854041181296154, 20.256569641043306 ], [ 105.854041605814785, 20.256569443543405 ], [ 105.854042048924271, 20.25656928656927 ], [ 105.854042506293268, 20.256569171655297 ], [ 105.854045191213544, 20.256568629620546 ], [ 105.854045648003151, 20.256568558999671 ], [ 105.854046109884635, 20.256568530341589 ], [ 105.854046572539858, 20.256568543914231 ], [ 105.854047031643361, 20.256568599590693 ], [ 105.854047482902971, 20.256568696850472 ], [ 105.854047922099824, 20.256568834784265 ], [ 105.854048345127822, 20.256569012102513 ], [ 105.854048748032042, 20.256569227147455 ], [ 105.854049127045684, 20.25656947790862 ], [ 105.854049478625342, 20.256569762041618 ], [ 105.854049799484031, 20.256570076890061 ], [ 105.854050086622024, 20.2565704195104 ], [ 105.854050337354849, 20.256570786699445 ], [ 105.854050549338382, 20.256571175024323 ], [ 105.854050720590763, 20.256571580854541 ], [ 105.854050849510941, 20.256572000395945 ], [ 105.854052047458765, 20.256576745568047 ], [ 105.854052133968707, 20.256577182655402 ], [ 105.854052174530338, 20.256577625651261 ], [ 105.854052168750727, 20.256578070264403 ], [ 105.854052116685835, 20.256578512187914 ], [ 105.854052018840036, 20.256578947140969 ], [ 105.854051876161137, 20.256579370910245 ], [ 105.854051690031227, 20.256579779390748 ], [ 105.854051462253352, 20.2565801686256 ], [ 105.854051195033918, 20.256580534844353 ], [ 105.854050890961489, 20.256580874499498 ], [ 105.854050552981491, 20.256581184300849 ], [ 105.854050184367949, 20.256581461247418 ], [ 105.854049788691526, 20.256581702656458 ], [ 105.854049369785102, 20.256581906189496 ], [ 105.854048931706515, 20.25658206987492 ], [ 105.854048478699397, 20.256582192127148 ], [ 105.85404801515196, 20.256582271761939 ], [ 105.854047545554465, 20.256582308007889 ], [ 105.854047074455877, 20.25658230051388 ], [ 105.854046606419615, 20.256582249352512 ], [ 105.85404614597951, 20.256582155019377 ], [ 105.854045697595737, 20.256582018428254 ], [ 105.854045265611731, 20.2565818409023 ], [ 105.854044854212049, 20.256581624161164 ], [ 105.85404446738184, 20.256581370304385 ], [ 105.854044108868294, 20.25658108179103 ], [ 105.854043782144245, 20.256580761415886 ], [ 105.854039899276231, 20.256576558278443 ] ], [ [ 105.854032629585731, 20.256461158488612 ], [ 105.854032687425359, 20.256460725857323 ], [ 105.854032789192587, 20.256460300503697 ], [ 105.854032933939337, 20.256459886390505 ], [ 105.854033120317055, 20.256459487375793 ], [ 105.854033346589418, 20.256459107176919 ], [ 105.854033610648372, 20.256458749335938 ], [ 105.854033910033834, 20.256458417186646 ], [ 105.85403424195664, 20.25645811382347 ], [ 105.854034603324465, 20.256457842072646 ], [ 105.854034990770657, 20.256457604465911 ], [ 105.854035400685646, 20.256457403216892 ], [ 105.85403582925052, 20.256457240200508 ], [ 105.85403627247257, 20.256457116935465 ], [ 105.854036726222617, 20.256457034570161 ], [ 105.854037186273331, 20.256456993871929 ], [ 105.854037648338732, 20.256456995219938 ], [ 105.854038108114025, 20.256457038601628 ], [ 105.854038561315804, 20.256457123612837 ], [ 105.854039003721837, 20.256457249461565 ], [ 105.854039431210524, 20.256457414975372 ], [ 105.854039839799213, 20.256457618612252 ], [ 105.854040225681359, 20.256457858475063 ], [ 105.854040585261927, 20.256458132329143 ], [ 105.85404091519095, 20.256458437623181 ], [ 105.854041212394677, 20.256458771512929 ], [ 105.854041474104221, 20.256459130887766 ], [ 105.854041697881442, 20.256459512399605 ], [ 105.854041881641521, 20.256459912494144 ], [ 105.854042248695407, 20.256460830767381 ], [ 105.854042395325735, 20.25646126188321 ], [ 105.854042495493033, 20.256461704684924 ], [ 105.854042548191217, 20.256462154724829 ], [ 105.854042552890945, 20.256462607482526 ], [ 105.85404250954501, 20.256463058410315 ], [ 105.85404241858879, 20.256463502978896 ], [ 105.854042280935914, 20.256463936722831 ], [ 105.854042097969, 20.256464355285392 ], [ 105.854041871525837, 20.256464754462364 ], [ 105.854041603880958, 20.256465130244244 ], [ 105.854041297722688, 20.256465478856512 ], [ 105.854040956126184, 20.256465796797556 ], [ 105.854040582522643, 20.256466080873839 ], [ 105.85404018066464, 20.256466328231976 ], [ 105.854039754588655, 20.256466536387393 ], [ 105.854039308574372, 20.256466703249291 ], [ 105.854038847101734, 20.256466827141633 ], [ 105.854038374805995, 20.256466906819984 ], [ 105.85403789643108, 20.256466941484035 ], [ 105.854037416782006, 20.256466930785599 ], [ 105.854036940676565, 20.256466874832128 ], [ 105.854036472896965, 20.256466774185661 ], [ 105.854036117079616, 20.25646666125764 ], [ 105.85403603163347, 20.256466638381877 ], [ 105.85403558741686, 20.256466496936437 ], [ 105.854035159990943, 20.256466315163991 ], [ 105.854034753455068, 20.256466094807852 ], [ 105.854034371708153, 20.256465837981384 ], [ 105.85403401841144, 20.256465547147727 ], [ 105.85403369695328, 20.256465225096168 ], [ 105.854033410416648, 20.256464874915405 ], [ 105.854033161549651, 20.256464499963901 ], [ 105.854032952739061, 20.256464103837711 ], [ 105.854032785987542, 20.256463690335924 ], [ 105.854032662894326, 20.256463263424319 ], [ 105.854032584639995, 20.256462827197257 ], [ 105.854032551975024, 20.256462385838454 ], [ 105.854032565212705, 20.256461943580842 ], [ 105.854032629585731, 20.256461158488612 ] ], [ [ 105.852858209360562, 20.257827436742492 ], [ 105.85285775055209, 20.257827341414767 ], [ 105.852857303853952, 20.257827204106604 ], [ 105.852856873568058, 20.257827026140351 ], [ 105.852856463838293, 20.25782680922989 ], [ 105.852856078610529, 20.257826555464185 ], [ 105.852855721594707, 20.257826267287118 ], [ 105.852855396229046, 20.257825947473979 ], [ 105.852855105646981, 20.257825599104716 ], [ 105.852854852646971, 20.257825225534294 ], [ 105.852854639665523, 20.257824830360381 ], [ 105.852854468753733, 20.257824417388687 ], [ 105.852854341557574, 20.257823990596329 ], [ 105.852854259302021, 20.25782355409352 ], [ 105.8528542227792, 20.25782311208399 ], [ 105.852854131729046, 20.257820122452806 ], [ 105.852854141084563, 20.257819682003134 ], [ 105.852854195852629, 20.257819244507406 ], [ 105.852854295512472, 20.257818814125613 ], [ 105.852854439116442, 20.257818394950103 ], [ 105.852854625299088, 20.257817990966682 ], [ 105.852854852290051, 20.25781760601668 ], [ 105.852855117930957, 20.25781724376046 ], [ 105.852855419695899, 20.257816907642578 ], [ 105.852855754715534, 20.257816600859076 ], [ 105.852856119804244, 20.257816326327042 ], [ 105.852856511490543, 20.257816086656909 ], [ 105.852856926050023, 20.257815884127616 ], [ 105.852857359540778, 20.257815720664944 ], [ 105.852857807840877, 20.2578155978232 ], [ 105.852858266687619, 20.257815516770453 ], [ 105.852858731717987, 20.257815478277397 ], [ 105.85285919851016, 20.257815482710047 ], [ 105.852859662625562, 20.257815530026267 ], [ 105.852860119651112, 20.257815619776128 ], [ 105.852860565241087, 20.257815751106236 ], [ 105.852860995158522, 20.257815922767822 ], [ 105.852861405315508, 20.257816133128614 ], [ 105.852861791811989, 20.257816380188363 ], [ 105.852862150972896, 20.257816661597865 ], [ 105.852862479383106, 20.25781697468129 ], [ 105.852862773919895, 20.257817316461644 ], [ 105.852863031782576, 20.257817683689051 ], [ 105.852863250519249, 20.257818072871675 ], [ 105.852864858134211, 20.257821304673833 ], [ 105.852865037932688, 20.257821718148666 ], [ 105.852865173560048, 20.257822146365573 ], [ 105.852865263688926, 20.257822585133663 ], [ 105.852865307437241, 20.257823030158782 ], [ 105.85286530437682, 20.257823477085527 ], [ 105.852865254537633, 20.257823921539902 ], [ 105.85286515840744, 20.257824359172098 ], [ 105.852865016927055, 20.257824785699071 ], [ 105.852864831481114, 20.257825196946484 ], [ 105.852864603884569, 20.257825588889503 ], [ 105.85286433636486, 20.257825957692248 ], [ 105.852864031540165, 20.257826299745307 ], [ 105.85286369239374, 20.257826611701056 ], [ 105.852863322244787, 20.257826890506426 ], [ 105.852862924715879, 20.257827133432798 ], [ 105.852862503697565, 20.257827338102693 ], [ 105.852862063310297, 20.257827502513038 ], [ 105.852861607864085, 20.257827625054755 ], [ 105.852861141816291, 20.257827704528566 ], [ 105.852860669728074, 20.257827740156664 ], [ 105.85286019621968, 20.257827731590378 ], [ 105.852859725925256, 20.257827678913518 ], [ 105.852858209360562, 20.257827436742492 ] ], [ [ 105.85235467201673, 20.257600947092843 ], [ 105.852354649566649, 20.257601384107026 ], [ 105.852354582426969, 20.257601817022394 ], [ 105.8523544712274, 20.257602241778571 ], [ 105.852354317010892, 20.257602654391743 ], [ 105.852354121223883, 20.257603050991932 ], [ 105.852353885702641, 20.257603427859383 ], [ 105.852353612656202, 20.257603781459416 ], [ 105.852353304645476, 20.257604108475562 ], [ 105.852352964559302, 20.257604405840706 ], [ 105.852352595587462, 20.257604670765808 ], [ 105.852352201190527, 20.257604900766111 ], [ 105.85235178506764, 20.257605093684404 ], [ 105.852351351121641, 20.257605247711293 ], [ 105.852350903422575, 20.257605361402138 ], [ 105.852350446169467, 20.257605433690607 ], [ 105.852349983650953, 20.25760546389871 ], [ 105.852349520205053, 20.257605451743125 ], [ 105.852349060178497, 20.257605397337841 ], [ 105.852348607885915, 20.257605301193149 ], [ 105.852348167569417, 20.257605164210794 ], [ 105.852347743358806, 20.25760498767556 ], [ 105.852347339232779, 20.25760477324318 ], [ 105.852346958981727, 20.257604522924851 ], [ 105.85234660617202, 20.257604239068343 ], [ 105.852346284112755, 20.257603924335982 ], [ 105.852345995824535, 20.257603581679678 ], [ 105.852345744011274, 20.257603214313242 ], [ 105.852345531034729, 20.257602825682262 ], [ 105.852345358892464, 20.257602419431755 ], [ 105.852345229199003, 20.257601999371996 ], [ 105.852345220029179, 20.257601963240958 ], [ 105.852345135901089, 20.257601546071353 ], [ 105.852345093650399, 20.257601123290275 ], [ 105.852345093650399, 20.257600698633173 ], [ 105.852345135901103, 20.257600275852099 ], [ 105.852345220029207, 20.257599858682497 ], [ 105.852345229199045, 20.257599822551448 ], [ 105.852345358892521, 20.257599402491675 ], [ 105.8523455310348, 20.257598996241171 ], [ 105.852345744011359, 20.257598607610188 ], [ 105.852345995824635, 20.257598240243752 ], [ 105.852346284112869, 20.257597897587445 ], [ 105.852346606172148, 20.257597582855084 ], [ 105.852346958981855, 20.257597298998579 ], [ 105.852347339232907, 20.25759704868026 ], [ 105.852347743358933, 20.257596834247888 ], [ 105.852348167569531, 20.257596657712657 ], [ 105.852348607886029, 20.25759652073031 ], [ 105.852349060178597, 20.257596424585618 ], [ 105.852349520205138, 20.257596370180345 ], [ 105.852349983651024, 20.257596358024763 ], [ 105.852350446169524, 20.257596388232876 ], [ 105.852350903422618, 20.257596460521352 ], [ 105.852351351121655, 20.257596574212204 ], [ 105.852351785067654, 20.257596728239093 ], [ 105.852352201190527, 20.257596921157397 ], [ 105.852352595587448, 20.257597151157711 ], [ 105.852352964559287, 20.257597416082813 ], [ 105.852353304645447, 20.257597713447957 ], [ 105.852353612656188, 20.25759804046411 ], [ 105.852353885702641, 20.257598394064154 ], [ 105.852354121223868, 20.257598770931619 ], [ 105.852354317010892, 20.257599167531819 ], [ 105.8523544712274, 20.257599580144994 ], [ 105.852354582426969, 20.257600004901192 ], [ 105.852354649566649, 20.257600437816563 ], [ 105.85235467201673, 20.257600874830754 ], [ 105.85235467201673, 20.257600947092843 ] ] ] } }
]
}
