{
"type": "FeatureCollection",
"name": "aoi_bbox",
"crs": { "type": "name", "properties": { "name": "urn:ogc:def:crs:OGC:1.3:CRS84" } },
"features": [
{ "type": "Feature", "properties": { "name": "AOI bbox +150m" }, "geometry": { "type": "Polygon", "coordinates": [ [ [ 105.857585294095955, 20.254435361440056 ], [ 105.857585294095955, 20.260343373195077 ], [ 105.849794843538717, 20.260343373195077 ], [ 105.849794843538717, 20.254435361440056 ], [ 105.857585294095955, 20.254435361440056 ] ] ] } }
]
}
