{
"type": "FeatureCollection",
"name": "osm_landuse",
"crs": { "type": "name", "properties": { "name": "urn:ogc:def:crs:OGC:1.3:CRS84" } },
"features": [
{ "type": "Feature", "properties": { "osm_id": 1362964200, "kind": "landuse", "value": "residential", "name": "" }, "geometry": { "type": "Polygon", "coordinates": [ [ [ 105.8605186, 20.269805 ], [ 105.8603203, 20.2700878 ], [ 105.8601111, 20.2699872 ], [ 105.8598322, 20.2702639 ], [ 105.8593816, 20.2703545 ], [ 105.8591831, 20.2700476 ], [ 105.8590972, 20.2697003 ], [ 105.8585176, 20.2689233 ], [ 105.8583645, 20.2660787 ], [ 105.858593, 20.2656846 ], [ 105.8593225, 20.2631382 ], [ 105.8599931, 20.2630728 ], [ 105.8607656, 20.2611906 ], [ 105.8612108, 20.2613114 ], [ 105.8613181, 20.261095 ], [ 105.8619243, 20.261251 ], [ 105.8612455, 20.2635911 ], [ 105.8609343, 20.264658 ], [ 105.8612323, 20.264746 ], [ 105.8609909, 20.265589 ], [ 105.8615539, 20.2656896 ], [ 105.8621869, 20.2658104 ], [ 105.8622888, 20.2661969 ], [ 105.862718, 20.2664394 ], [ 105.8630988, 20.2665854 ], [ 105.8634153, 20.2666005 ], [ 105.8636728, 20.2666558 ], [ 105.8638284, 20.2666146 ], [ 105.8640859, 20.2665602 ], [ 105.8643595, 20.2667112 ], [ 105.8645419, 20.266988 ], [ 105.8646813, 20.2676019 ], [ 105.8646974, 20.2678887 ], [ 105.8648423, 20.2680146 ], [ 105.8648369, 20.2681152 ], [ 105.864676, 20.2685369 ], [ 105.8637372, 20.2683482 ], [ 105.8629031, 20.2680714 ], [ 105.8626214, 20.2686577 ], [ 105.861983, 20.2684675 ], [ 105.8613393, 20.2684926 ], [ 105.8607814, 20.2690009 ], [ 105.8610282, 20.2692827 ], [ 105.8605186, 20.269805 ] ] ] } }
]
}
