{
"type": "FeatureCollection",
"name": "lots",
"crs": { "type": "name", "properties": { "name": "urn:ogc:def:crs:OGC:1.3:CRS84" } },
"features": [
{ "type": "Feature", "properties": { "lo": 1, "px_before": 107389, "px_after": 107097, "area_ha": 1.7496, "perimeter_m": 557.1, "area_ve_tay_ha": 1.7601, "chenh_ha": -0.0105, "chenh_pct": -0.6, "lo_id": "L01" }, "geometry": { "type": "Polygon", "coordinates": [ [ [ 105.855334532558288, 20.255791912715978 ], [ 105.854628929572954, 20.255928682473147 ], [ 105.854776659123615, 20.256366344886406 ], [ 105.85498270297056, 20.257190605748182 ], [ 105.854986590590315, 20.257252607494436 ], [ 105.855107106802677, 20.257562615854305 ], [ 105.8551051629928, 20.257600910961678 ], [ 105.855898237422608, 20.257221606624416 ], [ 105.856148988896749, 20.257084838006236 ], [ 105.855406453523742, 20.255881268970974 ], [ 105.855334532558288, 20.255791912715978 ] ] ] } },
{ "type": "Feature", "properties": { "lo": 2, "px_before": 51764, "px_after": 55736, "area_ha": 0.9172, "perimeter_m": 505.6, "area_ve_tay_ha": 0.8485, "chenh_ha": 0.0687, "chenh_pct": 8.1, "lo_id": "L02" }, "geometry": { "type": "Polygon", "coordinates": [ [ [ 105.854626985763076, 20.255926858877171 ], [ 105.854300425703755, 20.255985213937581 ], [ 105.854238223787689, 20.255999802699254 ], [ 105.854220729498792, 20.256019862244326 ], [ 105.854247942837077, 20.256111041961944 ], [ 105.854247942837077, 20.256162102580422 ], [ 105.854282931414858, 20.25622775192236 ], [ 105.854275156175348, 20.256282459686112 ], [ 105.854302369513618, 20.256318931517889 ], [ 105.854321807612394, 20.256399169517668 ], [ 105.854349020950679, 20.256428346961844 ], [ 105.85442677334575, 20.256676355016005 ], [ 105.854461761923545, 20.256866007966561 ], [ 105.854479256212429, 20.256897008907607 ], [ 105.854512300980346, 20.256909773999176 ], [ 105.854558952417378, 20.257081190841443 ], [ 105.854566727656888, 20.257212488720288 ], [ 105.854551177177882, 20.257314609215943 ], [ 105.854593940995173, 20.25770850192708 ], [ 105.854582278135908, 20.257748620573071 ], [ 105.854555064797623, 20.257774150615113 ], [ 105.854654199101347, 20.25781609281794 ], [ 105.854704738158148, 20.2578087985226 ], [ 105.854891343906345, 20.25771761980209 ], [ 105.855004084879198, 20.257641029635462 ], [ 105.855081837274284, 20.25761914672378 ], [ 105.855103219182922, 20.257599087385351 ], [ 105.855107106802677, 20.257562615854305 ], [ 105.854990478210084, 20.257267196137029 ], [ 105.85498270297056, 20.257190605748182 ], [ 105.854776659123615, 20.256366344886406 ], [ 105.854626985763076, 20.255926858877171 ] ] ] } },
{ "type": "Feature", "properties": { "lo": 3, "px_before": 48623, "px_after": 49580, "area_ha": 0.8107, "perimeter_m": 501.3, "area_ve_tay_ha": 0.7968, "chenh_ha": 0.0139, "chenh_pct": 1.7, "lo_id": "L03" }, "geometry": { "type": "Polygon", "coordinates": [ [ [ 105.854218785688914, 20.256010744269599 ], [ 105.853824192283895, 20.256070922892789 ], [ 105.854003022792568, 20.256362697704727 ], [ 105.854084662807409, 20.256566939746829 ], [ 105.854096325666688, 20.256632588917586 ], [ 105.85411187614568, 20.257008247527441 ], [ 105.854069112328389, 20.257154134121183 ], [ 105.854057449469124, 20.257314609215939 ], [ 105.854018573271588, 20.257456848365802 ], [ 105.854045786609888, 20.2574933199217 ], [ 105.854045786609888, 20.257518850005741 ], [ 105.854030236130853, 20.257558968700724 ], [ 105.853983584693808, 20.257584498773966 ], [ 105.853979697074053, 20.257617323147663 ], [ 105.854063280898757, 20.257721266951933 ], [ 105.854207122829649, 20.25771761980209 ], [ 105.854506469550699, 20.257681148298889 ], [ 105.854523963839597, 20.257697560476377 ], [ 105.854527851459352, 20.257730384826175 ], [ 105.85456478384701, 20.257765032743428 ], [ 105.854582278135908, 20.257748620573071 ], [ 105.854593940995173, 20.257693913325966 ], [ 105.854551177177882, 20.257314609215943 ], [ 105.854566727656888, 20.257212488720288 ], [ 105.854558952417378, 20.257081190841443 ], [ 105.854512300980346, 20.256909773999176 ], [ 105.854479256212429, 20.256897008907607 ], [ 105.854461761923545, 20.256866007966561 ], [ 105.85442677334575, 20.256676355016005 ], [ 105.854349020950679, 20.256428346961844 ], [ 105.854321807612394, 20.256399169517668 ], [ 105.854302369513618, 20.256318931517889 ], [ 105.854275156175348, 20.256282459686112 ], [ 105.854282931414858, 20.25622775192236 ], [ 105.854247942837077, 20.256162102580422 ], [ 105.854247942837077, 20.256111041961944 ], [ 105.854218785688914, 20.256010744269599 ] ] ] } },
{ "type": "Feature", "properties": { "lo": 4, "px_before": 9894, "px_after": 12456, "area_ha": 0.2056, "perimeter_m": 342.7, "area_ve_tay_ha": 0.162, "chenh_ha": 0.0436, "chenh_pct": 26.9, "lo_id": "L04" }, "geometry": { "type": "Polygon", "coordinates": [ [ [ 105.854036067560486, 20.256466642349018 ], [ 105.854030236130853, 20.256490349012534 ], [ 105.854065224708648, 20.256628941742161 ], [ 105.854076887567899, 20.257041072022986 ], [ 105.854032179940731, 20.257104897411114 ], [ 105.853962202785155, 20.257093955917881 ], [ 105.853837798953037, 20.257101250246777 ], [ 105.853814473234507, 20.257061131433517 ], [ 105.8536978446419, 20.257046542771569 ], [ 105.853670631303615, 20.256999129610787 ], [ 105.853618148436951, 20.257026483359159 ], [ 105.853633698915957, 20.257062955016156 ], [ 105.853664799873982, 20.257318256375246 ], [ 105.853660912254227, 20.257431318271585 ], [ 105.853637586535712, 20.257518850005734 ], [ 105.853647305585099, 20.257560792277516 ], [ 105.853668687493752, 20.257471436989189 ], [ 105.8536978446419, 20.257451377631693 ], [ 105.853977753264175, 20.257465966255587 ], [ 105.854012741841956, 20.257465966255587 ], [ 105.854022460891343, 20.257453201209742 ], [ 105.854057449469124, 20.257314609215939 ], [ 105.854069112328389, 20.257154134121183 ], [ 105.854092438046919, 20.257099426664592 ], [ 105.854115763765449, 20.256964481522591 ], [ 105.854092438046919, 20.256607058687813 ], [ 105.854036067560486, 20.256466642349018 ] ] ] } },
{ "type": "Feature", "properties": { "lo": 5, "px_before": 16795, "px_after": 16027, "area_ha": 0.2631, "perimeter_m": 209.2, "area_ve_tay_ha": 0.2753, "chenh_ha": -0.0122, "chenh_pct": -4.4, "lo_id": "L05" }, "geometry": { "type": "Polygon", "coordinates": [ [ [ 105.854036067560486, 20.256572410512124 ], [ 105.853900000869103, 20.256597940747593 ], [ 105.853655080824595, 20.256616176627503 ], [ 105.853571496999891, 20.25660341151179 ], [ 105.85354428366162, 20.256661766317904 ], [ 105.853583159859156, 20.256752945658533 ], [ 105.853583159859156, 20.256814947579588 ], [ 105.853614260817182, 20.256895185323007 ], [ 105.853602597957916, 20.257011894693957 ], [ 105.853616204627059, 20.257024659776079 ], [ 105.853670631303615, 20.256999129610787 ], [ 105.8536978446419, 20.257046542771569 ], [ 105.853814473234507, 20.257061131433517 ], [ 105.853837798953037, 20.257101250246777 ], [ 105.854041898990118, 20.257095779500123 ], [ 105.854076887567899, 20.257041072022986 ], [ 105.854080775187654, 20.256862360796625 ], [ 105.854061337088879, 20.256599764335686 ], [ 105.854036067560486, 20.256572410512124 ] ] ] } },
{ "type": "Feature", "properties": { "lo": 6, "px_before": 14545, "px_after": 15310, "area_ha": 0.2513, "perimeter_m": 201.2, "area_ve_tay_ha": 0.2385, "chenh_ha": 0.0128, "chenh_pct": 5.4, "lo_id": "L06" }, "geometry": { "type": "Polygon", "coordinates": [ [ [ 105.853818360854262, 20.25606909929849 ], [ 105.853542339851757, 20.25610921836811 ], [ 105.853489856985064, 20.256132925086192 ], [ 105.853517070323335, 20.256154808207384 ], [ 105.85353650842211, 20.256198574440486 ], [ 105.853563721760381, 20.256574234100501 ], [ 105.853571496999891, 20.256596117159482 ], [ 105.853604541767794, 20.256616176627507 ], [ 105.853900000869103, 20.256597940747593 ], [ 105.854053561849369, 20.256566939746833 ], [ 105.854030236130853, 20.256490349012534 ], [ 105.854034123750608, 20.256442935681889 ], [ 105.854003022792568, 20.256362697704727 ], [ 105.853818360854262, 20.25606909929849 ] ] ] } },
{ "type": "Feature", "properties": { "lo": 7, "px_before": 116355, "px_after": 116537, "area_ha": 1.9084, "perimeter_m": 796.4, "area_ve_tay_ha": 1.9075, "chenh_ha": 0.0009, "chenh_pct": 0.0, "lo_id": "L07" }, "geometry": { "type": "Polygon", "coordinates": [ [ [ 105.853546227471497, 20.256663589905234 ], [ 105.853460699836916, 20.256663589905234 ], [ 105.853161353115851, 20.25671100316849 ], [ 105.85313413977758, 20.256703708821249 ], [ 105.853120533108452, 20.256716473928702 ], [ 105.853116645488683, 20.257070249346523 ], [ 105.853155521686219, 20.257161428447258 ], [ 105.853198285503524, 20.257489672766503 ], [ 105.853221611222054, 20.257544380085562 ], [ 105.85321383598253, 20.257584498773962 ], [ 105.853241049320815, 20.257613675995369 ], [ 105.853241049320815, 20.257679324723494 ], [ 105.853221611222054, 20.25771944337702 ], [ 105.853252712180065, 20.257777797763634 ], [ 105.853246880750447, 20.257794209930928 ], [ 105.853204116933142, 20.257786915634558 ], [ 105.853165240735606, 20.257812445670318 ], [ 105.853064162622019, 20.257834328554758 ], [ 105.852924208310867, 20.257837975701857 ], [ 105.852741490182439, 20.2578087985226 ], [ 105.852690951125638, 20.257739502699888 ], [ 105.852652074928088, 20.257739502699888 ], [ 105.852617086350321, 20.257713972652148 ], [ 105.852500457757685, 20.257721266951936 ], [ 105.852469356799659, 20.257695736901194 ], [ 105.852403267263853, 20.257695736901191 ], [ 105.852309964389747, 20.257724914101701 ], [ 105.852300245340359, 20.257715796227131 ], [ 105.852354672016915, 20.257639206059611 ], [ 105.852344952967542, 20.257600910961671 ], [ 105.852259425332946, 20.257611852419195 ], [ 105.852234155804553, 20.257661088968469 ], [ 105.852191391987262, 20.257693913325966 ], [ 105.852183616747752, 20.257755914871222 ], [ 105.852133077690951, 20.257781444912073 ], [ 105.852191391987262, 20.257854387862771 ], [ 105.852214717705778, 20.257909095053321 ], [ 105.852265256762578, 20.257952860791878 ], [ 105.852327458678658, 20.258029450804646 ], [ 105.852362447256425, 20.258102393638818 ], [ 105.852393548214465, 20.258127923622691 ], [ 105.852428536792246, 20.258204513549099 ], [ 105.852459637750286, 20.258230043516164 ], [ 105.852587929202159, 20.258463460163291 ], [ 105.852692894935515, 20.258620286775948 ], [ 105.852704557794766, 20.258660405186284 ], [ 105.852743433992316, 20.258693229332504 ], [ 105.852739546372561, 20.258788054604786 ], [ 105.852805635908368, 20.258908409674646 ], [ 105.85282701781702, 20.258924821722399 ], [ 105.852865894014556, 20.258917527479177 ], [ 105.852904770212092, 20.258986822776038 ], [ 105.852990297846688, 20.258935763086605 ], [ 105.853688125592512, 20.258368634692722 ], [ 105.853678406543125, 20.258319398367856 ], [ 105.853635642725834, 20.258352222586165 ], [ 105.853614260817182, 20.258332163342459 ], [ 105.853614260817182, 20.257996626518072 ], [ 105.853602597957916, 20.257967449368646 ], [ 105.853618148436951, 20.257949213647457 ], [ 105.853618148436951, 20.257737679125196 ], [ 105.853649249394991, 20.25759544023262 ], [ 105.853637586535712, 20.257518850005734 ], [ 105.853660912254227, 20.257431318271585 ], [ 105.853664799873982, 20.257318256375246 ], [ 105.853633698915957, 20.257062955016156 ], [ 105.853602597957916, 20.257011894693957 ], [ 105.853614260817182, 20.256895185323007 ], [ 105.853583159859156, 20.256814947579588 ], [ 105.853583159859156, 20.256752945658533 ], [ 105.853546227471497, 20.256663589905234 ] ] ] } },
{ "type": "Feature", "properties": { "lo": 8, "px_before": 13785, "px_after": 15252, "area_ha": 0.2499, "perimeter_m": 198.0, "area_ve_tay_ha": 0.2259, "chenh_ha": 0.024, "chenh_pct": 10.6, "lo_id": "L08" }, "geometry": { "type": "Polygon", "coordinates": [ [ [ 105.853495688414696, 20.256138395866792 ], [ 105.853449036977651, 20.256160278987199 ], [ 105.85339849792085, 20.256152984614065 ], [ 105.853258543609698, 20.256185809290432 ], [ 105.853204116933142, 20.256182162104501 ], [ 105.853101095009663, 20.256213163182107 ], [ 105.853136083587458, 20.256563292569872 ], [ 105.853169128355361, 20.256707355994909 ], [ 105.853460699836916, 20.256663589905234 ], [ 105.853542339851757, 20.256663589905234 ], [ 105.853563721760381, 20.256636236092934 ], [ 105.853575384619646, 20.256599764335686 ], [ 105.853555946520871, 20.256512232083328 ], [ 105.85353650842211, 20.256198574440486 ], [ 105.853495688414696, 20.256138395866792 ] ] ] } },
{ "type": "Feature", "properties": { "lo": 9, "px_before": 32436, "px_after": 31824, "area_ha": 0.52, "perimeter_m": 351.9, "area_ve_tay_ha": 0.5314, "chenh_ha": -0.0114, "chenh_pct": -2.1, "lo_id": "L09" }, "geometry": { "type": "Polygon", "coordinates": [ [ [ 105.85311081405905, 20.256649001205947 ], [ 105.853036949283734, 20.2567000616475 ], [ 105.852986410226933, 20.256703708821249 ], [ 105.852959196888648, 20.256681825777438 ], [ 105.852904770212092, 20.256681825777438 ], [ 105.852873669254066, 20.256732886208198 ], [ 105.852659850167598, 20.256747474899612 ], [ 105.852626805399694, 20.256763887175818 ], [ 105.852622917779939, 20.256807653237221 ], [ 105.852654018737965, 20.256891538153752 ], [ 105.852723995893555, 20.257011894693949 ], [ 105.852786197809607, 20.257263548976503 ], [ 105.852848399725673, 20.257631911755965 ], [ 105.852852287345414, 20.25779603350496 ], [ 105.852865894014556, 20.257823387112918 ], [ 105.852924208310867, 20.257837975701857 ], [ 105.853087488340535, 20.257830681407562 ], [ 105.853165240735606, 20.257812445670318 ], [ 105.853204116933142, 20.257786915634558 ], [ 105.853252712180065, 20.257785092060423 ], [ 105.853221611222054, 20.25771944337702 ], [ 105.853241049320815, 20.257679324723494 ], [ 105.853241049320815, 20.257613675995369 ], [ 105.85321383598253, 20.257584498773962 ], [ 105.853221611222054, 20.257544380085562 ], [ 105.853198285503524, 20.257489672766503 ], [ 105.853155521686219, 20.257161428447258 ], [ 105.853116645488683, 20.257070249346523 ], [ 105.853124420728193, 20.256949892851566 ], [ 105.853112757868928, 20.256818594750648 ], [ 105.853120533108452, 20.256716473928702 ], [ 105.853139971207213, 20.256701885234378 ], [ 105.853139971207213, 20.256680002190315 ], [ 105.85311081405905, 20.256649001205947 ] ] ] } },
{ "type": "Feature", "properties": { "lo": 10, "px_before": 16027, "px_after": 20871, "area_ha": 0.3439, "perimeter_m": 295.5, "area_ve_tay_ha": 0.2626, "chenh_ha": 0.0813, "chenh_pct": 31.0, "lo_id": "L10" }, "geometry": { "type": "Polygon", "coordinates": [ [ [ 105.852620973970062, 20.256805829651579 ], [ 105.852591816821914, 20.25682953626329 ], [ 105.852541277765127, 20.257015541860383 ], [ 105.852510176807087, 20.257048366354383 ], [ 105.852471300609537, 20.257135898304455 ], [ 105.852475188229292, 20.257212488720285 ], [ 105.852428536792246, 20.2572635489765 ], [ 105.852447974891007, 20.257351080805254 ], [ 105.852409098693471, 20.257420376801345 ], [ 105.852432424412001, 20.257453201209742 ], [ 105.85238966059471, 20.257500614231862 ], [ 105.852393548214465, 20.257533438623287 ], [ 105.852354672016915, 20.257562615854297 ], [ 105.852354672016915, 20.257639206059611 ], [ 105.852300245340359, 20.257715796227131 ], [ 105.852313852009502, 20.257724914101701 ], [ 105.852403267263853, 20.257695736901191 ], [ 105.852469356799659, 20.257695736901194 ], [ 105.852500457757685, 20.257721266951936 ], [ 105.852617086350321, 20.257713972652148 ], [ 105.852652074928088, 20.257739502699888 ], [ 105.852690951125638, 20.257739502699888 ], [ 105.852741490182439, 20.2578087985226 ], [ 105.852799804478749, 20.257827034260281 ], [ 105.852854231155291, 20.257823387112918 ], [ 105.852848399725673, 20.257631911755965 ], [ 105.852786197809607, 20.257263548976503 ], [ 105.852716220654031, 20.256990011693581 ], [ 105.852654018737965, 20.256891538153752 ], [ 105.852620973970062, 20.256805829651579 ] ] ] } },
{ "type": "Feature", "properties": { "lo": 11, "px_before": 25122, "px_after": 25979, "area_ha": 0.423, "perimeter_m": 304.6, "area_ve_tay_ha": 0.4117, "chenh_ha": 0.0113, "chenh_pct": 2.7, "lo_id": "L11" }, "geometry": { "type": "Polygon", "coordinates": [ [ [ 105.853099151199785, 20.256211339589481 ], [ 105.85306027500225, 20.256214986774715 ], [ 105.853033061663979, 20.256236869884326 ], [ 105.852986410226933, 20.256233222699606 ], [ 105.852578210152771, 20.256335343839403 ], [ 105.852173897698364, 20.256411934650171 ], [ 105.852148628169957, 20.256431994141984 ], [ 105.852195279607017, 20.256453877221016 ], [ 105.852424649172491, 20.256734709794703 ], [ 105.85250434537744, 20.256780299450291 ], [ 105.852578210152771, 20.256860537211615 ], [ 105.852595704441669, 20.256822241921615 ], [ 105.852622917779939, 20.256804006065909 ], [ 105.852640412068837, 20.256751122072249 ], [ 105.852873669254066, 20.256732886208198 ], [ 105.852904770212092, 20.256681825777438 ], [ 105.852959196888648, 20.256681825777438 ], [ 105.852986410226933, 20.256703708821249 ], [ 105.853036949283734, 20.2567000616475 ], [ 105.85310303881954, 20.25664900120595 ], [ 105.853136083587458, 20.256669060667132 ], [ 105.85314191501709, 20.256707355994902 ], [ 105.853167184545484, 20.256705532408098 ], [ 105.853136083587458, 20.256563292569872 ], [ 105.853099151199785, 20.256211339589481 ] ] ] } },
{ "type": "Feature", "properties": { "lo": 12, "px_before": 73433, "px_after": 73458, "area_ha": 1.2031, "perimeter_m": 452.1, "area_ve_tay_ha": 1.2035, "chenh_ha": -0.0004, "chenh_pct": -0.0, "lo_id": "L12" }, "geometry": { "type": "Polygon", "coordinates": [ [ [ 105.852146684360093, 20.256422876191476 ], [ 105.851789023342732, 20.256492172601881 ], [ 105.851563541396999, 20.256561468981353 ], [ 105.851493564241437, 20.256594293571347 ], [ 105.851446912804377, 20.256638059680562 ], [ 105.851295295633989, 20.256696414473655 ], [ 105.851254475626561, 20.256723768275368 ], [ 105.851231149908045, 20.256763887175815 ], [ 105.851246700387051, 20.256833183434008 ], [ 105.851271969915459, 20.25685324287139 ], [ 105.851318621352505, 20.256838654189909 ], [ 105.851367216599428, 20.256891538153752 ], [ 105.851359441359918, 20.25696083435496 ], [ 105.851378879458693, 20.256990011693578 ], [ 105.851639349982207, 20.257248960333587 ], [ 105.851689889039008, 20.257325550693636 ], [ 105.851872607167437, 20.257515202851128 ], [ 105.851903708125462, 20.257566263007792 ], [ 105.852127246261318, 20.257779621337868 ], [ 105.852183616747752, 20.257755914871222 ], [ 105.852191391987262, 20.257693913325966 ], [ 105.852234155804553, 20.257661088968469 ], [ 105.852259425332946, 20.257611852419195 ], [ 105.852344952967542, 20.257600910961671 ], [ 105.852354672016915, 20.257562615854297 ], [ 105.852393548214465, 20.257533438623287 ], [ 105.85238966059471, 20.257500614231862 ], [ 105.852432424412001, 20.257453201209742 ], [ 105.852409098693471, 20.257409435330334 ], [ 105.852447974891007, 20.257351080805254 ], [ 105.852428536792246, 20.2572635489765 ], [ 105.852475188229292, 20.257212488720285 ], [ 105.852471300609537, 20.257135898304455 ], [ 105.852510176807087, 20.257048366354383 ], [ 105.852541277765127, 20.257015541860383 ], [ 105.852580153962649, 20.256866007966565 ], [ 105.85250434537744, 20.256780299450291 ], [ 105.852424649172491, 20.256734709794703 ], [ 105.852195279607017, 20.256453877221016 ], [ 105.852162234839099, 20.25644475927179 ], [ 105.852146684360093, 20.256422876191476 ] ] ] } }
]
}
