{
"type": "FeatureCollection",
"name": "osm_highway",
"crs": { "type": "name", "properties": { "name": "urn:ogc:def:crs:OGC:1.3:CRS84" } },
"features": [
{ "type": "Feature", "properties": { "osm_id": 198765743, "kind": "highway", "value": "primary", "name": "Quốc lộ 38B" }, "geometry": { "type": "LineString", "coordinates": [ [ 105.8486818, 20.2337098 ], [ 105.8487372, 20.2338102 ], [ 105.8487848, 20.2338901 ], [ 105.8489062, 20.2341072 ], [ 105.8490282, 20.2343538 ], [ 105.8491006, 20.2345929 ], [ 105.8491576, 20.2348156 ], [ 105.8491905, 20.2350453 ], [ 105.8492168, 20.2353501 ], [ 105.8492296, 20.235472 ], [ 105.8492916, 20.2359502 ], [ 105.8493146, 20.2361136 ], [ 105.8493555, 20.2362753 ], [ 105.8494051, 20.2364225 ], [ 105.8494976, 20.2365999 ], [ 105.8496706, 20.2368264 ], [ 105.8501145, 20.2373591 ], [ 105.8506822, 20.2380521 ], [ 105.85141, 20.2388347 ], [ 105.8518901, 20.2392575 ], [ 105.8523837, 20.2396803 ], [ 105.853364, 20.240395 ], [ 105.8535545, 20.2405057 ], [ 105.8537516, 20.2405963 ], [ 105.854052, 20.2407071 ], [ 105.8545871, 20.2408631 ], [ 105.855267, 20.2410531 ], [ 105.8562461, 20.2413312 ], [ 105.8565089, 20.2414092 ], [ 105.856639, 20.2414891 ], [ 105.8567175, 20.2415658 ], [ 105.8567758, 20.2416873 ], [ 105.8567993, 20.2418238 ], [ 105.8568187, 20.2420949 ], [ 105.8568388, 20.2427883 ], [ 105.8568737, 20.2441371 ], [ 105.8568777, 20.2447348 ], [ 105.8568851, 20.245089 ], [ 105.8568965, 20.2452327 ], [ 105.8569059, 20.2452752 ], [ 105.8569193, 20.2453252 ], [ 105.8570212, 20.2455684 ], [ 105.8571982, 20.2459616 ], [ 105.8585684, 20.2485874 ], [ 105.8586681, 20.2487823 ], [ 105.8598093, 20.2510143 ], [ 105.8617003, 20.2546155 ], [ 105.8621201, 20.255434 ], [ 105.8622274, 20.2556082 ], [ 105.8623521, 20.2557699 ], [ 105.8624661, 20.2558995 ], [ 105.8626168, 20.25604 ], [ 105.8626726, 20.2561071 ], [ 105.8627226, 20.2561741 ], [ 105.8627514, 20.2562364 ], [ 105.8627715, 20.2562971 ], [ 105.8627786, 20.2563569 ], [ 105.8627779, 20.2564254 ] ] } },
{ "type": "Feature", "properties": { "osm_id": 198766511, "kind": "highway", "value": "primary", "name": "" }, "geometry": { "type": "LineString", "coordinates": [ [ 105.8626601, 20.2873249 ], [ 105.8625518, 20.2865666 ], [ 105.8623534, 20.2856436 ], [ 105.8616981, 20.2838313 ], [ 105.8612111, 20.2832026 ], [ 105.8608903, 20.2827884 ], [ 105.8605091, 20.2823038 ], [ 105.8604984, 20.2822825 ], [ 105.859642, 20.2811322 ], [ 105.8592689, 20.2805499 ], [ 105.858802, 20.2794854 ], [ 105.8584792, 20.2787494 ], [ 105.8581885, 20.2780868 ], [ 105.8579403, 20.2775208 ], [ 105.8577101, 20.2769959 ], [ 105.8574343, 20.2763672 ], [ 105.8569752, 20.2753204 ], [ 105.8569627, 20.2752038 ], [ 105.856965, 20.2751844 ], [ 105.8569911, 20.2749645 ], [ 105.8570654, 20.2747892 ], [ 105.8577891, 20.2736621 ], [ 105.8587296, 20.2719031 ], [ 105.8591004, 20.2711492 ], [ 105.8593159, 20.2700532 ], [ 105.8595182, 20.2697664 ], [ 105.8598586, 20.2692827 ], [ 105.8600249, 20.2689782 ], [ 105.860068, 20.2686662 ], [ 105.8601227, 20.268056 ], [ 105.8601648, 20.2675994 ], [ 105.8602579, 20.2667967 ], [ 105.8604124, 20.2661789 ], [ 105.8605717, 20.2656579 ], [ 105.8605836, 20.2656152 ], [ 105.8607562, 20.2649991 ], [ 105.8610961, 20.2637837 ], [ 105.8611249, 20.2636809 ], [ 105.8611705, 20.2635119 ], [ 105.8612988, 20.263062 ], [ 105.8615003, 20.2623963 ], [ 105.862076, 20.2602772 ], [ 105.8628276, 20.2575107 ] ] } },
{ "type": "Feature", "properties": { "osm_id": 198767042, "kind": "highway", "value": "unclassified", "name": "" }, "geometry": { "type": "LineString", "coordinates": [ [ 105.8593159, 20.2700532 ], [ 105.8591454, 20.2695892 ], [ 105.8586534, 20.268989 ], [ 105.8584791, 20.266098 ], [ 105.8584642, 20.2660117 ], [ 105.8584267, 20.2659588 ], [ 105.8583489, 20.2659286 ], [ 105.8582458, 20.2659117 ], [ 105.8575488, 20.265984 ], [ 105.8567204, 20.2661764 ], [ 105.8565786, 20.2661773 ], [ 105.856516, 20.2661468 ], [ 105.8564157, 20.2661018 ], [ 105.856358, 20.2660022 ], [ 105.8560431, 20.2652071 ], [ 105.8559856, 20.2650549 ], [ 105.8550565, 20.2627093 ], [ 105.8529312, 20.2591233 ], [ 105.8520028, 20.2577979 ], [ 105.8510938, 20.2568466 ], [ 105.8497135, 20.255402 ], [ 105.8476107, 20.2554422 ], [ 105.84647, 20.2548936 ], [ 105.8452684, 20.2543156 ], [ 105.8438153, 20.2536555 ], [ 105.8437371, 20.25362 ] ] } },
{ "type": "Feature", "properties": { "osm_id": 474584455, "kind": "highway", "value": "service", "name": "" }, "geometry": { "type": "LineString", "coordinates": [ [ 105.8689819, 20.2819235 ], [ 105.8698255, 20.2815285 ], [ 105.870192, 20.2813523 ], [ 105.8714752, 20.2807625 ], [ 105.8711187, 20.2795933 ], [ 105.8709352, 20.2789364 ], [ 105.8707212, 20.2785656 ], [ 105.8694825, 20.2775945 ], [ 105.8693547, 20.2773155 ], [ 105.8692502, 20.2762672 ], [ 105.8692396, 20.2752139 ], [ 105.8692949, 20.2738641 ], [ 105.8698654, 20.2706678 ], [ 105.8697728, 20.2665147 ], [ 105.8696493, 20.2658387 ], [ 105.8695076, 20.2657559 ], [ 105.8633036, 20.2643051 ], [ 105.8612028, 20.2638149 ] ] } },
{ "type": "Feature", "properties": { "osm_id": 474586204, "kind": "highway", "value": "secondary", "name": "DT 477C, Sơn Lai" }, "geometry": { "type": "LineString", "coordinates": [ [ 105.8523837, 20.2396803 ], [ 105.8448607, 20.2509853 ], [ 105.8443489, 20.2520291 ], [ 105.8438153, 20.2536555 ], [ 105.8437765, 20.25453 ], [ 105.8437496, 20.2548823 ], [ 105.8436839, 20.2552245 ], [ 105.8436517, 20.2553478 ], [ 105.8436102, 20.2554535 ], [ 105.8435603, 20.2555395 ], [ 105.8433071, 20.2558762 ], [ 105.8430334, 20.2561856 ], [ 105.8426291, 20.2566421 ], [ 105.841643, 20.2584642 ], [ 105.8416024, 20.2585314 ], [ 105.8409238, 20.2594692 ], [ 105.840011, 20.2605159 ], [ 105.839703, 20.2616978 ], [ 105.8396858, 20.261962 ], [ 105.8395995, 20.2623152 ], [ 105.8394212, 20.262661 ], [ 105.8386809, 20.26405 ], [ 105.8383136, 20.2654577 ], [ 105.837499, 20.2685791 ], [ 105.83745, 20.2687094 ], [ 105.8370533, 20.2697637 ], [ 105.8365359, 20.2705301 ], [ 105.8348933, 20.2729633 ], [ 105.8347375, 20.2731688 ] ] } },
{ "type": "Feature", "properties": { "osm_id": 857303465, "kind": "highway", "value": "residential", "name": "" }, "geometry": { "type": "LineString", "coordinates": [ [ 105.8440747, 20.2570789 ], [ 105.8441474, 20.2569801 ], [ 105.8442636, 20.2568404 ], [ 105.8444285, 20.2566982 ], [ 105.8448706, 20.2563851 ], [ 105.8452112, 20.2561525 ], [ 105.8453168, 20.2560721 ], [ 105.8458795, 20.2554688 ], [ 105.8459911, 20.2553703 ], [ 105.8460625, 20.2553207 ], [ 105.8461328, 20.2552931 ], [ 105.8462273, 20.2552548 ], [ 105.8462784, 20.2552091 ], [ 105.8463437, 20.2551061 ], [ 105.84647, 20.2548936 ] ] } },
{ "type": "Feature", "properties": { "osm_id": 857310830, "kind": "highway", "value": "residential", "name": "" }, "geometry": { "type": "LineString", "coordinates": [ [ 105.8456002, 20.2606579 ], [ 105.8456631, 20.2605562 ], [ 105.8457429, 20.2603679 ], [ 105.8457946, 20.2601839 ], [ 105.8459182, 20.2595562 ], [ 105.8460693, 20.2589721 ] ] } },
{ "type": "Feature", "properties": { "osm_id": 857310832, "kind": "highway", "value": "residential", "name": "" }, "geometry": { "type": "LineString", "coordinates": [ [ 105.8456154, 20.2574006 ], [ 105.8455941, 20.2574973 ], [ 105.8455658, 20.2575713 ], [ 105.8455054, 20.2579833 ], [ 105.8455097, 20.2580414 ], [ 105.8455346, 20.258107 ], [ 105.8455503, 20.2581607 ], [ 105.8455439, 20.2582192 ], [ 105.8454429, 20.2583632 ], [ 105.8454054, 20.2584202 ], [ 105.8454036, 20.2585091 ], [ 105.8454403, 20.2588997 ] ] } },
{ "type": "Feature", "properties": { "osm_id": 857344093, "kind": "highway", "value": "residential", "name": "" }, "geometry": { "type": "LineString", "coordinates": [ [ 105.8507622, 20.2600153 ], [ 105.851807, 20.2596167 ], [ 105.8523879, 20.2593828 ], [ 105.8526666, 20.2592594 ], [ 105.8529312, 20.2591233 ] ] } },
{ "type": "Feature", "properties": { "osm_id": 857344094, "kind": "highway", "value": "residential", "name": "" }, "geometry": { "type": "LineString", "coordinates": [ [ 105.8481506, 20.25832 ], [ 105.848077, 20.2584364 ], [ 105.848037, 20.2585312 ], [ 105.8479823, 20.2587502 ], [ 105.8479613, 20.2589397 ], [ 105.8479297, 20.25907 ], [ 105.8478898, 20.2591292 ], [ 105.8478477, 20.2591844 ], [ 105.847795, 20.259292 ], [ 105.8477666, 20.2593711 ] ] } },
{ "type": "Feature", "properties": { "osm_id": 857344665, "kind": "highway", "value": "residential", "name": "" }, "geometry": { "type": "LineString", "coordinates": [ [ 105.8502881, 20.2577358 ], [ 105.850318, 20.257697 ], [ 105.850322, 20.2576507 ], [ 105.8503019, 20.2575373 ], [ 105.8502628, 20.2573927 ], [ 105.850249, 20.2573387 ], [ 105.850253, 20.2573048 ] ] } },
{ "type": "Feature", "properties": { "osm_id": 857344666, "kind": "highway", "value": "residential", "name": "" }, "geometry": { "type": "LineString", "coordinates": [ [ 105.850253, 20.2573048 ], [ 105.8502789, 20.2572826 ], [ 105.8503502, 20.2572783 ], [ 105.8504353, 20.2572546 ], [ 105.8504859, 20.2571877 ], [ 105.8505365, 20.2571143 ], [ 105.8506055, 20.2570625 ], [ 105.8509713, 20.2569222 ], [ 105.8510938, 20.2568466 ] ] } },
{ "type": "Feature", "properties": { "osm_id": 857347064, "kind": "highway", "value": "residential", "name": "" }, "geometry": { "type": "LineString", "coordinates": [ [ 105.8569793, 20.2514087 ], [ 105.8572764, 20.2513686 ], [ 105.8575004, 20.251352 ], [ 105.8579813, 20.2513544 ], [ 105.8584218, 20.2513615 ], [ 105.8586837, 20.251345 ], [ 105.8589304, 20.2512977 ], [ 105.8598093, 20.2510143 ] ] } },
{ "type": "Feature", "properties": { "osm_id": 857347065, "kind": "highway", "value": "residential", "name": "" }, "geometry": { "type": "LineString", "coordinates": [ [ 105.8568712, 20.2503948 ], [ 105.856953, 20.2502513 ], [ 105.8570305, 20.2501629 ], [ 105.8571311, 20.2499447 ], [ 105.8572419, 20.2497904 ], [ 105.8572891, 20.2497633 ], [ 105.8573427, 20.2497422 ], [ 105.8574032, 20.249702 ], [ 105.8574498, 20.2496436 ], [ 105.8576612, 20.2492114 ], [ 105.857724, 20.2491288 ], [ 105.8577785, 20.2491131 ], [ 105.8579001, 20.2491151 ], [ 105.8580048, 20.2490895 ], [ 105.8580823, 20.2490306 ], [ 105.8581557, 20.2489028 ], [ 105.8581997, 20.2488359 ], [ 105.8582688, 20.2488143 ], [ 105.8586681, 20.2487823 ] ] } },
{ "type": "Feature", "properties": { "osm_id": 862785122, "kind": "highway", "value": "residential", "name": "" }, "geometry": { "type": "LineString", "coordinates": [ [ 105.8611705, 20.2635119 ], [ 105.8700282, 20.2655958 ], [ 105.8700844, 20.2656342 ], [ 105.8701045, 20.2656624 ], [ 105.8701095, 20.2656837 ], [ 105.8701186, 20.2657221 ], [ 105.8701682, 20.2658416 ], [ 105.8702744, 20.2659246 ], [ 105.8704124, 20.2659744 ], [ 105.8705752, 20.2660176 ], [ 105.870719, 20.266026 ] ] } },
{ "type": "Feature", "properties": { "osm_id": 862813829, "kind": "highway", "value": "residential", "name": "" }, "geometry": { "type": "LineString", "coordinates": [ [ 105.8516497, 20.2625557 ], [ 105.852313, 20.2625666 ], [ 105.8525562, 20.2625721 ], [ 105.8528285, 20.2625484 ], [ 105.8532952, 20.2624293 ] ] } },
{ "type": "Feature", "properties": { "osm_id": 862814459, "kind": "highway", "value": "residential", "name": "" }, "geometry": { "type": "LineString", "coordinates": [ [ 105.8521381, 20.264586 ], [ 105.8524573, 20.2645466 ], [ 105.8527443, 20.264465 ], [ 105.8533279, 20.2643046 ], [ 105.8535536, 20.2642472 ], [ 105.8537361, 20.2642169 ] ] } },
{ "type": "Feature", "properties": { "osm_id": 862818047, "kind": "highway", "value": "residential", "name": "" }, "geometry": { "type": "LineString", "coordinates": [ [ 105.8603469, 20.2627569 ], [ 105.8606575, 20.2628575 ], [ 105.8612988, 20.263062 ] ] } },
{ "type": "Feature", "properties": { "osm_id": 862818048, "kind": "highway", "value": "residential", "name": "" }, "geometry": { "type": "LineString", "coordinates": [ [ 105.86093, 20.2622145 ], [ 105.8615003, 20.2623963 ] ] } },
{ "type": "Feature", "properties": { "osm_id": 862818049, "kind": "highway", "value": "residential", "name": "" }, "geometry": { "type": "LineString", "coordinates": [ [ 105.8611989, 20.2614394 ], [ 105.86093, 20.2622145 ], [ 105.8606575, 20.2628575 ] ] } },
{ "type": "Feature", "properties": { "osm_id": 862818769, "kind": "highway", "value": "residential", "name": "" }, "geometry": { "type": "LineString", "coordinates": [ [ 105.8589909, 20.2647461 ], [ 105.8599937, 20.2648894 ], [ 105.8607562, 20.2649991 ] ] } },
{ "type": "Feature", "properties": { "osm_id": 862818770, "kind": "highway", "value": "residential", "name": "" }, "geometry": { "type": "LineString", "coordinates": [ [ 105.8596432, 20.2666577 ], [ 105.8598712, 20.2655642 ], [ 105.8599937, 20.2648894 ], [ 105.860161, 20.2641259 ] ] } },
{ "type": "Feature", "properties": { "osm_id": 862828562, "kind": "highway", "value": "residential", "name": "" }, "geometry": { "type": "LineString", "coordinates": [ [ 105.8454734, 20.2608307 ], [ 105.8454297, 20.2608034 ], [ 105.8452701, 20.26067 ], [ 105.8451416, 20.260516 ], [ 105.8450132, 20.260265 ], [ 105.8449288, 20.2600212 ], [ 105.8449024, 20.2598499 ], [ 105.8448925, 20.2596078 ], [ 105.8448693, 20.2593782 ], [ 105.8448329, 20.2591548 ], [ 105.844773, 20.2589545 ], [ 105.8446749, 20.2587055 ], [ 105.8445664, 20.2583983 ], [ 105.8442437, 20.2575349 ], [ 105.8442248, 20.2574414 ], [ 105.84421, 20.2573452 ], [ 105.8441864, 20.2572303 ], [ 105.844167, 20.2571797 ], [ 105.8441509, 20.2571482 ], [ 105.8440747, 20.2570789 ], [ 105.8439124, 20.2569491 ], [ 105.843791, 20.2568493 ], [ 105.8430334, 20.2561856 ] ] } },
{ "type": "Feature", "properties": { "osm_id": 862828563, "kind": "highway", "value": "residential", "name": "" }, "geometry": { "type": "LineString", "coordinates": [ [ 105.8454734, 20.2608307 ], [ 105.8455236, 20.2607629 ] ] } },
{ "type": "Feature", "properties": { "osm_id": 862828564, "kind": "highway", "value": "residential", "name": "" }, "geometry": { "type": "LineString", "coordinates": [ [ 105.8455236, 20.2607629 ], [ 105.8456002, 20.2606579 ] ] } },
{ "type": "Feature", "properties": { "osm_id": 862828566, "kind": "highway", "value": "residential", "name": "" }, "geometry": { "type": "LineString", "coordinates": [ [ 105.8429321, 20.2625117 ], [ 105.8430824, 20.2624578 ], [ 105.8431963, 20.2623993 ], [ 105.8434847, 20.2622103 ], [ 105.8438525, 20.2620153 ], [ 105.8441531, 20.2618473 ], [ 105.8446232, 20.2615143 ], [ 105.84517, 20.2610493 ], [ 105.8454297, 20.2608034 ] ] } },
{ "type": "Feature", "properties": { "osm_id": 862834128, "kind": "highway", "value": "residential", "name": "" }, "geometry": { "type": "LineString", "coordinates": [ [ 105.845255, 20.2788123 ], [ 105.8453268, 20.2787127 ], [ 105.8453724, 20.2785962 ], [ 105.8453876, 20.2784648 ], [ 105.8452502, 20.2770444 ], [ 105.8451573, 20.2762549 ], [ 105.8450777, 20.2751503 ], [ 105.8450637, 20.2746225 ], [ 105.845072, 20.2743981 ], [ 105.8451928, 20.2739094 ], [ 105.8452898, 20.2734574 ], [ 105.8454351, 20.2719972 ], [ 105.845532, 20.2713885 ], [ 105.8455922, 20.2711762 ], [ 105.8457111, 20.2709013 ], [ 105.8459323, 20.2704373 ], [ 105.8461249, 20.270207 ], [ 105.8462293, 20.2700174 ], [ 105.8463447, 20.2697255 ], [ 105.8464158, 20.2695267 ], [ 105.8465418, 20.2691606 ], [ 105.8467121, 20.2686763 ], [ 105.8468583, 20.268275 ], [ 105.8469991, 20.2678611 ], [ 105.8471346, 20.2674748 ], [ 105.8472875, 20.2670559 ], [ 105.8474457, 20.2666105 ], [ 105.8475584, 20.2662721 ], [ 105.8476643, 20.2659312 ], [ 105.847836, 20.2653587 ], [ 105.8479661, 20.264897 ], [ 105.8480197, 20.2647171 ], [ 105.8481042, 20.2643422 ], [ 105.8481377, 20.2641749 ], [ 105.8481364, 20.2640918 ], [ 105.8481337, 20.2640239 ], [ 105.8480841, 20.2639031 ], [ 105.847895, 20.2636553 ], [ 105.8476442, 20.2633357 ], [ 105.8473706, 20.26303 ], [ 105.8470877, 20.2627369 ], [ 105.8468959, 20.2625142 ], [ 105.8467832, 20.2623519 ], [ 105.8466759, 20.2621845 ], [ 105.8465901, 20.2620009 ], [ 105.8465244, 20.26187 ], [ 105.8464091, 20.261714 ], [ 105.8462119, 20.2614875 ], [ 105.8460335, 20.2612925 ], [ 105.8456057, 20.2609264 ], [ 105.8454734, 20.2608307 ] ] } },
{ "type": "Feature", "properties": { "osm_id": 862860912, "kind": "highway", "value": "residential", "name": "" }, "geometry": { "type": "LineString", "coordinates": [ [ 105.8449367, 20.2589151 ], [ 105.8449975, 20.2589005 ], [ 105.8454403, 20.2588997 ], [ 105.8459092, 20.2589337 ], [ 105.8460693, 20.2589721 ], [ 105.8465809, 20.2590801 ], [ 105.8466235, 20.2590865 ], [ 105.846912, 20.2591083 ], [ 105.8469659, 20.2591155 ], [ 105.847411, 20.2592322 ], [ 105.8476316, 20.2593091 ], [ 105.8477666, 20.2593711 ], [ 105.8479513, 20.2594628 ], [ 105.8481323, 20.2595284 ], [ 105.8483376, 20.2595801 ], [ 105.8486896, 20.2596344 ], [ 105.8493663, 20.2596996 ], [ 105.8497077, 20.2597413 ], [ 105.85035, 20.2598308 ], [ 105.8504295, 20.2598473 ], [ 105.8505465, 20.2598961 ], [ 105.8507622, 20.2600153 ], [ 105.8510076, 20.2602533 ], [ 105.8511901, 20.2604408 ], [ 105.8514403, 20.2606499 ], [ 105.8518631, 20.2610035 ], [ 105.852348, 20.2613228 ], [ 105.852749, 20.261547 ], [ 105.8528827, 20.2616534 ], [ 105.8529912, 20.2618076 ], [ 105.8532225, 20.262267 ], [ 105.8532952, 20.2624293 ], [ 105.8534743, 20.2628773 ], [ 105.8536242, 20.2635196 ], [ 105.8537335, 20.2641201 ], [ 105.8537361, 20.2642169 ], [ 105.8537457, 20.2645762 ], [ 105.8537173, 20.2647092 ], [ 105.8536699, 20.264789 ], [ 105.8535877, 20.2648688 ], [ 105.8534175, 20.2649829 ], [ 105.8525303, 20.2655035 ], [ 105.8521292, 20.2656708 ], [ 105.8519226, 20.2657582 ], [ 105.8518172, 20.2658418 ], [ 105.8517742, 20.2659133 ], [ 105.8517483, 20.2660128 ], [ 105.8517524, 20.2661687 ], [ 105.8518375, 20.266906 ], [ 105.8518334, 20.2670352 ], [ 105.8517893, 20.267122 ], [ 105.8517767, 20.2672746 ], [ 105.851797, 20.2674381 ], [ 105.8517605, 20.2675217 ], [ 105.8516754, 20.2675711 ], [ 105.8512743, 20.2676851 ], [ 105.8511852, 20.2677345 ], [ 105.8511244, 20.2678105 ], [ 105.8511204, 20.2679397 ], [ 105.851216, 20.2683653 ], [ 105.8512946, 20.268715 ], [ 105.8513675, 20.2688671 ], [ 105.8514445, 20.2689925 ], [ 105.8515093, 20.2691217 ], [ 105.8515093, 20.2692623 ], [ 105.8514688, 20.2694714 ], [ 105.8512482, 20.2706493 ], [ 105.8510719, 20.2720659 ] ] } },
{ "type": "Feature", "properties": { "osm_id": 865394550, "kind": "highway", "value": "tertiary", "name": "" }, "geometry": { "type": "LineString", "coordinates": [ [ 105.8610961, 20.2637837 ], [ 105.8584589, 20.2631583 ], [ 105.8581853, 20.2631483 ], [ 105.8578902, 20.2632137 ], [ 105.8576113, 20.263425 ], [ 105.8560431, 20.2652071 ], [ 105.8522885, 20.269373 ], [ 105.8521912, 20.2695503 ], [ 105.8521454, 20.2696792 ], [ 105.8518648, 20.2717474 ], [ 105.850771, 20.2789669 ], [ 105.8507997, 20.2792462 ], [ 105.850897, 20.2794611 ], [ 105.851023, 20.2796276 ], [ 105.8529335, 20.2813188 ], [ 105.8531753, 20.2815124 ], [ 105.8538838, 20.2821255 ], [ 105.853999, 20.2822172 ], [ 105.8541321, 20.2822922 ], [ 105.8550325, 20.2826661 ], [ 105.8551566, 20.2827511 ], [ 105.8552111, 20.2828221 ], [ 105.8552614, 20.2828876 ], [ 105.855315, 20.2830671 ], [ 105.8557583, 20.286618 ], [ 105.8559978, 20.2882079 ], [ 105.8560373, 20.2885644 ], [ 105.8560413, 20.2888793 ], [ 105.8560516, 20.291554 ], [ 105.8561039, 20.2918185 ], [ 105.8575469, 20.2984401 ], [ 105.8576074, 20.2986101 ], [ 105.8577426, 20.2989271 ], [ 105.8585557, 20.300586 ] ] } },
{ "type": "Feature", "properties": { "osm_id": 865394551, "kind": "highway", "value": "tertiary", "name": "" }, "geometry": { "type": "LineString", "coordinates": [ [ 105.8584382, 20.3006651 ], [ 105.8576368, 20.2989825 ], [ 105.8574882, 20.2986677 ], [ 105.8574241, 20.2984802 ], [ 105.8559765, 20.291839 ], [ 105.8559201, 20.2915807 ], [ 105.8559276, 20.2889007 ], [ 105.8559166, 20.2885583 ], [ 105.8558791, 20.2881993 ], [ 105.8556409, 20.286652 ], [ 105.855199, 20.2831105 ], [ 105.855168, 20.2829728 ], [ 105.8551131, 20.2828797 ], [ 105.8550206, 20.2827952 ], [ 105.8545224, 20.2825846 ], [ 105.8540599, 20.2823739 ], [ 105.8539231, 20.2823014 ], [ 105.8538279, 20.2822233 ], [ 105.8530479, 20.2815812 ], [ 105.8529404, 20.2814744 ], [ 105.8508793, 20.2796542 ], [ 105.8507496, 20.2794847 ], [ 105.8506847, 20.2792978 ], [ 105.850643, 20.2790587 ], [ 105.8506569, 20.278837 ], [ 105.8517329, 20.2717683 ], [ 105.8520332, 20.2696042 ], [ 105.8520749, 20.2694694 ], [ 105.8521537, 20.2693521 ], [ 105.8559856, 20.2650549 ], [ 105.8575094, 20.2633747 ], [ 105.857842, 20.2631281 ], [ 105.8581048, 20.2630627 ], [ 105.8584696, 20.2630476 ], [ 105.8611249, 20.2636809 ] ] } },
{ "type": "Feature", "properties": { "osm_id": 957894646, "kind": "highway", "value": "residential", "name": "" }, "geometry": { "type": "LineString", "coordinates": [ [ 105.8575004, 20.251352 ], [ 105.8576274, 20.2500659 ] ] } },
{ "type": "Feature", "properties": { "osm_id": 1043680289, "kind": "highway", "value": "residential", "name": "" }, "geometry": { "type": "LineString", "coordinates": [ [ 105.8532225, 20.262267 ], [ 105.8532822, 20.2622399 ], [ 105.8534063, 20.2622078 ] ] } },
{ "type": "Feature", "properties": { "osm_id": 1043680665, "kind": "highway", "value": "residential", "name": "" }, "geometry": { "type": "LineString", "coordinates": [ [ 105.8536249, 20.2621367 ], [ 105.8534063, 20.2622078 ] ] } },
{ "type": "Feature", "properties": { "osm_id": 1043681632, "kind": "highway", "value": "residential", "name": "" }, "geometry": { "type": "LineString", "coordinates": [ [ 105.8606575, 20.2628575 ], [ 105.8605832, 20.2630652 ] ] } },
{ "type": "Feature", "properties": { "osm_id": 1043682492, "kind": "highway", "value": "unclassified", "name": "" }, "geometry": { "type": "LineString", "coordinates": [ [ 105.8582979, 20.2606496 ], [ 105.8591294, 20.2605641 ], [ 105.8607065, 20.2603628 ], [ 105.861597, 20.2602823 ], [ 105.862076, 20.2602772 ] ] } }
]
}
