{
"type": "FeatureCollection",
"name": "zones",
"crs": { "type": "name", "properties": { "name": "urn:ogc:def:crs:OGC:1.3:CRS84" } },
"features": [
{ "type": "Feature", "properties": { "zone": 1, "area_ha": 3.04, "label": "Lô 1 — tán dày, ổn định (cây lâu năm/vườn)", "ndvi_change": -0.034 }, "geometry": { "type": "MultiPolygon", "coordinates": [ [ [ [ 105.853712882357371, 20.256174713186237 ], [ 105.853904367726798, 20.256173780794064 ], [ 105.853903873673843, 20.256083426620766 ], [ 105.853616645781813, 20.25608482512386 ], [ 105.853617139668629, 20.256175179303927 ], [ 105.853521396977214, 20.256175645369353 ], [ 105.853521890811336, 20.256265999550735 ], [ 105.853713376302252, 20.256265067363103 ], [ 105.853712882357371, 20.256174713186237 ] ] ], [ [ [ 105.851514248592792, 20.256817900251672 ], [ 105.851609991728111, 20.256817435268022 ], [ 105.851609498985511, 20.256727081047217 ], [ 105.851800985137388, 20.256726150927612 ], [ 105.851799506593366, 20.256455088273057 ], [ 105.851608020773767, 20.25645601837914 ], [ 105.851608513508339, 20.256546372602777 ], [ 105.851512770539159, 20.25654683757968 ], [ 105.851513263221022, 20.256637191804614 ], [ 105.851417520193792, 20.256637656731503 ], [ 105.851418012822947, 20.256728010957755 ], [ 105.851322269737651, 20.256728475834628 ], [ 105.851322762314098, 20.256818830062187 ], [ 105.851418505454788, 20.256818365183065 ], [ 105.851418998089301, 20.256908719407431 ], [ 105.851514741282685, 20.256908254473792 ], [ 105.851514248592792, 20.256817900251672 ] ] ], [ [ [ 105.853057491362691, 20.258888600282667 ], [ 105.85315323572901, 20.258888134410896 ], [ 105.85315274203866, 20.258797780247804 ], [ 105.853344230652482, 20.25879684835197 ], [ 105.853343736854058, 20.258706494192452 ], [ 105.85343948110156, 20.258706028168383 ], [ 105.853438493401953, 20.258525319851017 ], [ 105.853534237535996, 20.2585248537792 ], [ 105.853533743634841, 20.258434499621359 ], [ 105.853629487710819, 20.258434033499515 ], [ 105.853628993756928, 20.258343679342996 ], [ 105.85372473777484, 20.258343213171145 ], [ 105.853723255763171, 20.258072150702695 ], [ 105.853627511911412, 20.258072616867778 ], [ 105.853627017968279, 20.257982262707493 ], [ 105.853722761764644, 20.257981796544669 ], [ 105.853722267768788, 20.257891442385695 ], [ 105.853818011507101, 20.257890976172856 ], [ 105.853817023412688, 20.257710267856595 ], [ 105.85400851065971, 20.257709335283149 ], [ 105.854006534060005, 20.257347918657384 ], [ 105.854102277457969, 20.257347452301289 ], [ 105.85410079487022, 20.257076389828853 ], [ 105.853717821926892, 20.257078254912535 ], [ 105.853716833991527, 20.256897546574816 ], [ 105.853812577120621, 20.256897080386803 ], [ 105.853812083101587, 20.256806726218787 ], [ 105.853907826172616, 20.256806259980777 ], [ 105.853908320247029, 20.25689661414653 ], [ 105.854099806491803, 20.256895681509185 ], [ 105.854098323944299, 20.25662461902262 ], [ 105.853811095071549, 20.25662601787992 ], [ 105.853811589085225, 20.256716372049826 ], [ 105.853141387900578, 20.256719634236731 ], [ 105.853141881529268, 20.256809988421491 ], [ 105.852758909143276, 20.256811851387489 ], [ 105.852759402553119, 20.25690220558031 ], [ 105.852663659394551, 20.256902671193405 ], [ 105.852664646111506, 20.257083379580749 ], [ 105.852568902839479, 20.257083845146088 ], [ 105.852569396146606, 20.2571741993406 ], [ 105.852665139474013, 20.257173733773008 ], [ 105.852665632839205, 20.25726408796433 ], [ 105.852857119596734, 20.257263156667854 ], [ 105.852860080508691, 20.257805281768935 ], [ 105.852668593086548, 20.257806213092465 ], [ 105.852668099705298, 20.257715858906799 ], [ 105.852189381379986, 20.257718186289672 ], [ 105.852189874484338, 20.257808540486607 ], [ 105.852285618210132, 20.257808075112315 ], [ 105.852286604537611, 20.257988783498856 ], [ 105.852382348371506, 20.257988318067792 ], [ 105.852382841594633, 20.25807867225739 ], [ 105.852478585481251, 20.258078206771799 ], [ 105.85247957204632, 20.258258915143681 ], [ 105.852575316041012, 20.258258449601318 ], [ 105.852575809382955, 20.258348803783583 ], [ 105.852671553430369, 20.258348338186696 ], [ 105.852673033638425, 20.258619400721098 ], [ 105.852768777849306, 20.258618935065176 ], [ 105.852769764778856, 20.258799643412225 ], [ 105.852865509097825, 20.258799177699522 ], [ 105.852866002622008, 20.258889531869389 ], [ 105.852961746993699, 20.258889066102164 ], [ 105.852962240575934, 20.258979420268826 ], [ 105.853057985000319, 20.258978954447073 ], [ 105.853057491362691, 20.258888600282667 ] ] ], [ [ [ 105.854105736923287, 20.257979931370688 ], [ 105.85391424934933, 20.257980864062215 ], [ 105.853914743458631, 20.258071218215729 ], [ 105.853818999612244, 20.258071684485351 ], [ 105.853819493668837, 20.258162038640183 ], [ 105.854106725366108, 20.25816063966775 ], [ 105.854105736923287, 20.257979931370688 ] ] ] ] } },
{ "type": "Feature", "properties": { "zone": 2, "area_ha": 2.07, "label": "Lô 2 — bật xanh mạnh (mới gieo/tái sinh)", "ndvi_change": 0.449 }, "geometry": { "type": "MultiPolygon", "coordinates": [ [ [ [ 105.853520409317014, 20.255994937003763 ], [ 105.853041696373481, 20.2559972665244 ], [ 105.853042189925361, 20.256087620718937 ], [ 105.853520903145778, 20.256085291187031 ], [ 105.853520409317014, 20.255994937003763 ] ] ], [ [ [ 105.852946940772398, 20.256178440664392 ], [ 105.852946447273226, 20.25608808646853 ], [ 105.85256347663794, 20.256089948944268 ], [ 105.852563969915593, 20.256180303149151 ], [ 105.852372484471118, 20.256181234077943 ], [ 105.852372977640684, 20.256271588286381 ], [ 105.852660205969528, 20.256270191808028 ], [ 105.852659712633809, 20.25617983760635 ], [ 105.852946940772398, 20.256178440664392 ] ] ], [ [ [ 105.852373470812935, 20.256361942493882 ], [ 105.852372977640684, 20.256271588286381 ], [ 105.852085749287752, 20.256272984294366 ], [ 105.852086242293879, 20.256363338508621 ], [ 105.852373470812935, 20.256361942493882 ] ] ], [ [ [ 105.854388518908905, 20.25716534461894 ], [ 105.854484262185366, 20.257164878058298 ], [ 105.854483273358525, 20.256984169758582 ], [ 105.854387530192838, 20.256984636314701 ], [ 105.854384564109054, 20.256442511379394 ], [ 105.854288821272974, 20.25644297786971 ], [ 105.854287832710611, 20.256262269545886 ], [ 105.854383575435932, 20.256261803060095 ], [ 105.854383081103407, 20.256171448899032 ], [ 105.854191595760824, 20.256172381813833 ], [ 105.85419110154173, 20.256082027647306 ], [ 105.853999616299149, 20.256082960348547 ], [ 105.854001592748588, 20.256444377027051 ], [ 105.854097335592741, 20.256443910693537 ], [ 105.854098323944299, 20.25662461902262 ], [ 105.854194066896525, 20.256624152632323 ], [ 105.854197526599251, 20.257256631738656 ], [ 105.854389013270975, 20.257255698769651 ], [ 105.854388518908905, 20.25716534461894 ] ] ], [ [ [ 105.855443179724034, 20.257431271951944 ], [ 105.855442684747402, 20.257340917827989 ], [ 105.855634171460053, 20.257339983495534 ], [ 105.855633676375334, 20.257249629375156 ], [ 105.855825162966468, 20.257248694838164 ], [ 105.855824667773689, 20.257158340721364 ], [ 105.856016154243292, 20.257157405979832 ], [ 105.856015658942425, 20.257067051866624 ], [ 105.856111402117818, 20.257066584419722 ], [ 105.856110906764243, 20.256976230307828 ], [ 105.856015163644244, 20.256976697752467 ], [ 105.856014668348749, 20.256886343637365 ], [ 105.855918925281443, 20.256886811027478 ], [ 105.855917934809298, 20.256706102789931 ], [ 105.855822191850052, 20.256706570123253 ], [ 105.855821201499424, 20.256525861877417 ], [ 105.855725458648251, 20.256526329153942 ], [ 105.85572446841914, 20.256345620899808 ], [ 105.855628725676027, 20.256346088119553 ], [ 105.855627735568419, 20.256165379857134 ], [ 105.855531992933393, 20.256165847020092 ], [ 105.855531497939012, 20.256075492885206 ], [ 105.855435755356652, 20.256075959993638 ], [ 105.855434765486692, 20.255895251716517 ], [ 105.855339023012434, 20.255895718768169 ], [ 105.855339517890684, 20.255986072909455 ], [ 105.855052290285599, 20.2559874737576 ], [ 105.855051300864034, 20.255806765460513 ], [ 105.854668331129332, 20.255808632508277 ], [ 105.854668825617267, 20.255898986666331 ], [ 105.854764568110355, 20.255898519980523 ], [ 105.854765062656341, 20.255988874135383 ], [ 105.854669320107874, 20.255989340823447 ], [ 105.854669814601181, 20.256079694979615 ], [ 105.854765557205013, 20.256079228289288 ], [ 105.854766546310429, 20.25625993659429 ], [ 105.854862289022336, 20.256259469847176 ], [ 105.85486327824924, 20.25644017814389 ], [ 105.854767535426589, 20.256440644895516 ], [ 105.854768029988676, 20.256530999044724 ], [ 105.854863772866736, 20.256530532290839 ], [ 105.854865256735295, 20.256801594726017 ], [ 105.854960999776807, 20.256801127913082 ], [ 105.854962978527354, 20.257162544471097 ], [ 105.855058721787699, 20.257162077596849 ], [ 105.855060700802753, 20.257523494130762 ], [ 105.855252187758438, 20.257522560207398 ], [ 105.85525169288988, 20.257432206079852 ], [ 105.855443179724034, 20.257431271951944 ] ] ], [ [ [ 105.854481295737088, 20.256622753147845 ], [ 105.854482778949148, 20.256893815607313 ], [ 105.854578522056769, 20.256893349001174 ], [ 105.854577038678556, 20.256622286548488 ], [ 105.854481295737088, 20.256622753147845 ] ] ] ] } },
{ "type": "Feature", "properties": { "zone": 3, "area_ha": 2.67, "label": "Lô 3 — sinh trưởng đều", "ndvi_change": 0.058 }, "geometry": { "type": "MultiPolygon", "coordinates": [ [ [ [ 105.851894756601098, 20.256364268923789 ], [ 105.851895249499137, 20.256454623141607 ], [ 105.851799506593366, 20.256455088273057 ], [ 105.851799999438697, 20.256545442492182 ], [ 105.85199148535834, 20.256544512172528 ], [ 105.851990499448817, 20.256363803742339 ], [ 105.851894756601098, 20.256364268923789 ] ] ], [ [ [ 105.852664646111506, 20.257083379580749 ], [ 105.852663659394551, 20.256902671193405 ], [ 105.852759402553119, 20.25690220558031 ], [ 105.852758909143276, 20.256811851387489 ], [ 105.853141881529268, 20.256809988421491 ], [ 105.853141387900578, 20.256719634236731 ], [ 105.853811589085225, 20.256716372049826 ], [ 105.853811095071549, 20.25662601787992 ], [ 105.853619609142967, 20.256626950190139 ], [ 105.853618127450318, 20.256355887661236 ], [ 105.85371387024982, 20.25635542153903 ], [ 105.853713376302252, 20.256265067363103 ], [ 105.853521890811336, 20.256265999550735 ], [ 105.853521396977214, 20.256175645369353 ], [ 105.853617139668629, 20.256175179303927 ], [ 105.853616645781813, 20.25608482512386 ], [ 105.852946447273226, 20.25608808646853 ], [ 105.852946940772398, 20.256178440664392 ], [ 105.852659712633809, 20.25617983760635 ], [ 105.852660205969528, 20.256270191808028 ], [ 105.852372977640684, 20.256271588286381 ], [ 105.852373470812935, 20.256361942493882 ], [ 105.852181985136241, 20.256362873222638 ], [ 105.852182971267268, 20.256543581643822 ], [ 105.852374457165496, 20.256542650906049 ], [ 105.852374950345791, 20.256633005110722 ], [ 105.852470693346248, 20.256632539661187 ], [ 105.852471679825626, 20.256813248063203 ], [ 105.8525674229342, 20.256812782556896 ], [ 105.852568902839479, 20.257083845146088 ], [ 105.852664646111506, 20.257083379580749 ] ], [ [ 105.852663166040074, 20.256812316998328 ], [ 105.852662179339177, 20.256631608605325 ], [ 105.85275792233162, 20.256631142998994 ], [ 105.852758909143276, 20.256811851387489 ], [ 105.852663166040074, 20.256812316998328 ] ], [ [ 105.852469706877599, 20.256451831255404 ], [ 105.85256544976464, 20.256451365758117 ], [ 105.852564956478943, 20.25636101155607 ], [ 105.853043670597046, 20.25635868329692 ], [ 105.853044164159641, 20.256449037487698 ], [ 105.852852678409675, 20.256449968952662 ], [ 105.852853171864183, 20.256540323147 ], [ 105.852565943053008, 20.256541719959223 ], [ 105.852566436344063, 20.256632074159388 ], [ 105.852470693346248, 20.256632539661187 ], [ 105.852469706877599, 20.256451831255404 ] ], [ [ 105.853235156225523, 20.256357751627412 ], [ 105.853234662554868, 20.256267397440208 ], [ 105.853426148061857, 20.25626646556616 ], [ 105.853426641843285, 20.256356819748852 ], [ 105.853522384648144, 20.256356353731178 ], [ 105.853523866174655, 20.256627416266845 ], [ 105.85323663725363, 20.256628814183387 ], [ 105.853236143574904, 20.256538459999003 ], [ 105.853140400651242, 20.256538925864401 ], [ 105.853139413412634, 20.256358217488298 ], [ 105.853235156225523, 20.256357751627412 ] ] ], [ [ [ 105.851322269737651, 20.256728475834628 ], [ 105.851418012822947, 20.256728010957755 ], [ 105.851417520193792, 20.256637656731503 ], [ 105.851226034131273, 20.25663858642848 ], [ 105.851228004220928, 20.257000003345841 ], [ 105.851419490726485, 20.256999073630855 ], [ 105.851418505454788, 20.256818365183065 ], [ 105.851322762314098, 20.256818830062187 ], [ 105.851322269737651, 20.256728475834628 ] ] ], [ [ [ 105.852665632839205, 20.25726408796433 ], [ 105.852665139474013, 20.257173733773008 ], [ 105.852569396146606, 20.2571741993406 ], [ 105.852568902839479, 20.257083845146088 ], [ 105.852473159564795, 20.257084310659152 ], [ 105.852473652816528, 20.257174664855917 ], [ 105.852377909483764, 20.257175130318974 ], [ 105.85237938908891, 20.257446192910386 ], [ 105.852475132587813, 20.257445727440572 ], [ 105.852474146070946, 20.257265019051747 ], [ 105.852665632839205, 20.25726408796433 ] ] ], [ [ [ 105.85237938908891, 20.257446192910386 ], [ 105.85218790208306, 20.257447123693218 ], [ 105.852189381379986, 20.257718186289672 ], [ 105.852476612383214, 20.257716790016751 ], [ 105.852476119115394, 20.257626435825635 ], [ 105.852380375505732, 20.257626901299954 ], [ 105.85237938908891, 20.257446192910386 ] ] ], [ [ [ 105.852575316041012, 20.258258449601318 ], [ 105.85247957204632, 20.258258915143681 ], [ 105.852478585481251, 20.258078206771799 ], [ 105.852382841594633, 20.25807867225739 ], [ 105.852384321280141, 20.258349734820548 ], [ 105.852480065332884, 20.258349269328203 ], [ 105.85248105191404, 20.25852997769443 ], [ 105.852576796074885, 20.258529512145302 ], [ 105.852577289424872, 20.258619866324747 ], [ 105.852673033638425, 20.258619400721098 ], [ 105.852671553430369, 20.258348338186696 ], [ 105.852575809382955, 20.258348803783583 ], [ 105.852575316041012, 20.258258449601318 ] ] ], [ [ [ 105.85419110154173, 20.256082027647306 ], [ 105.854191595760824, 20.256172381813833 ], [ 105.854383081103407, 20.256171448899032 ], [ 105.854382092446386, 20.255990740574077 ], [ 105.854765062656341, 20.255988874135383 ], [ 105.854764568110355, 20.255898519980523 ], [ 105.854285855618087, 20.255900852886946 ], [ 105.85428634988719, 20.255991207053093 ], [ 105.853616151897668, 20.255994470942852 ], [ 105.853616645781813, 20.25608482512386 ], [ 105.853903873673843, 20.256083426620766 ], [ 105.853904367726798, 20.256173780794064 ], [ 105.853712882357371, 20.256174713186237 ], [ 105.853713376302252, 20.256265067363103 ], [ 105.853904861782439, 20.256264134966418 ], [ 105.853905355840766, 20.256354489137834 ], [ 105.85400109863221, 20.256354022858833 ], [ 105.853999616299149, 20.256082960348547 ], [ 105.85419110154173, 20.256082027647306 ] ] ], [ [ [ 105.856302392996213, 20.256975295261753 ], [ 105.856206649881571, 20.256975762810924 ], [ 105.856206154475316, 20.256885408700352 ], [ 105.856110411413397, 20.256885876194989 ], [ 105.856109916065208, 20.256795522081216 ], [ 105.856014173055954, 20.256795989521329 ], [ 105.856013182478435, 20.256615281286418 ], [ 105.855917439577254, 20.256615748669752 ], [ 105.855916449121239, 20.256435040426553 ], [ 105.855820706328146, 20.256435507753082 ], [ 105.855819715993647, 20.25625479950159 ], [ 105.855723973308613, 20.25625526677134 ], [ 105.855722983095632, 20.256074558511553 ], [ 105.855627240518658, 20.256075025724506 ], [ 105.855626745471582, 20.255984671590952 ], [ 105.855531002947302, 20.255985138749381 ], [ 105.855530012971954, 20.2558044304749 ], [ 105.855434270555747, 20.255804897576542 ], [ 105.855433775627489, 20.25571454343563 ], [ 105.855242290897763, 20.255715477477615 ], [ 105.855242785715262, 20.255805831623054 ], [ 105.855338528136855, 20.255805364625928 ], [ 105.855339023012434, 20.255895718768169 ], [ 105.855434765486692, 20.255895251716517 ], [ 105.855435755356652, 20.256075959993638 ], [ 105.855531497939012, 20.256075492885206 ], [ 105.855531992933393, 20.256165847020092 ], [ 105.855627735568419, 20.256165379857134 ], [ 105.855628725676027, 20.256346088119553 ], [ 105.85572446841914, 20.256345620899808 ], [ 105.855725458648251, 20.256526329153942 ], [ 105.855821201499424, 20.256525861877417 ], [ 105.855822191850052, 20.256706570123253 ], [ 105.855917934809298, 20.256706102789931 ], [ 105.855918925281443, 20.256886811027478 ], [ 105.856014668348749, 20.256886343637365 ], [ 105.856015163644244, 20.256976697752467 ], [ 105.856110906764243, 20.256976230307828 ], [ 105.856111897474051, 20.257156938530667 ], [ 105.856207640702138, 20.257156471029241 ], [ 105.856207145290526, 20.257066116920548 ], [ 105.856302888460519, 20.257065649369117 ], [ 105.856302392996213, 20.256975295261753 ] ] ], [ [ [ 105.854002086867652, 20.256534731194325 ], [ 105.853906343965448, 20.256535197477831 ], [ 105.853906838031833, 20.256625551646422 ], [ 105.854098323944299, 20.25662461902262 ], [ 105.854097335592741, 20.256443910693537 ], [ 105.854001592748588, 20.256444377027051 ], [ 105.854002086867652, 20.256534731194325 ] ] ], [ [ [ 105.854098323944299, 20.25662461902262 ], [ 105.854099806491803, 20.256895681509185 ], [ 105.853908320247029, 20.25689661414653 ], [ 105.853907826172616, 20.256806259980777 ], [ 105.853812083101587, 20.256806726218787 ], [ 105.853812577120621, 20.256897080386803 ], [ 105.853716833991527, 20.256897546574816 ], [ 105.853717821926892, 20.257078254912535 ], [ 105.85410079487022, 20.257076389828853 ], [ 105.854101783259367, 20.257257098144756 ], [ 105.854197526599251, 20.257256631738656 ], [ 105.854194066896525, 20.256624152632323 ], [ 105.854098323944299, 20.25662461902262 ] ] ], [ [ [ 105.854774954140154, 20.257795957034674 ], [ 105.854966441444247, 20.257795023411354 ], [ 105.85496594673377, 20.25770466927986 ], [ 105.854678715939741, 20.257706069629656 ], [ 105.854676243258425, 20.257254298924149 ], [ 105.854963473221716, 20.257252898608247 ], [ 105.854963967918749, 20.257343252744448 ], [ 105.855059711289854, 20.257342785865688 ], [ 105.855058721787699, 20.257162077596849 ], [ 105.854962978527354, 20.257162544471097 ], [ 105.854960999776807, 20.256801127913082 ], [ 105.854865256735295, 20.256801594726017 ], [ 105.854865751363533, 20.256891948869185 ], [ 105.854770008263955, 20.25689241563212 ], [ 105.8547705028395, 20.256982769776609 ], [ 105.854579016521541, 20.256983703150187 ], [ 105.854578522056769, 20.256893349001174 ], [ 105.854482778949148, 20.256893815607313 ], [ 105.85448080133844, 20.25653239899281 ], [ 105.854768029988676, 20.256530999044724 ], [ 105.854767535426589, 20.256440644895516 ], [ 105.85486327824924, 20.25644017814389 ], [ 105.854862289022336, 20.256259469847176 ], [ 105.854766546310429, 20.25625993659429 ], [ 105.854766051756371, 20.256169582442261 ], [ 105.854670309097173, 20.256170049134848 ], [ 105.854670803595823, 20.256260403289129 ], [ 105.85457506087856, 20.256260869931719 ], [ 105.85457555532453, 20.256351224087322 ], [ 105.854479812549187, 20.256351690679899 ], [ 105.854479318158582, 20.256261336522037 ], [ 105.854287832710611, 20.256262269545886 ], [ 105.854288821272974, 20.25644297786971 ], [ 105.854384564109054, 20.256442511379394 ], [ 105.854387530192838, 20.256984636314701 ], [ 105.854483273358525, 20.256984169758582 ], [ 105.854488712039014, 20.257978065360408 ], [ 105.854584455811235, 20.25797759872717 ], [ 105.854583961316919, 20.257887244588513 ], [ 105.854775448742529, 20.257886311169749 ], [ 105.854774954140154, 20.257795957034674 ] ] ], [ [ [ 105.853725231784111, 20.258433567325412 ], [ 105.853916719922651, 20.258432634820391 ], [ 105.853916225802621, 20.258342280670632 ], [ 105.854011969812476, 20.258341814341975 ], [ 105.854011475639751, 20.258251460193542 ], [ 105.854202963540658, 20.258250527383925 ], [ 105.854202469259832, 20.258160173239062 ], [ 105.854298213150884, 20.258159706758111 ], [ 105.85429771881735, 20.258069352614573 ], [ 105.854106231143362, 20.258070285519686 ], [ 105.854106725366108, 20.25816063966775 ], [ 105.853819493668837, 20.258162038640183 ], [ 105.853818999612244, 20.258071684485351 ], [ 105.853914743458631, 20.258071218215729 ], [ 105.85391424934933, 20.257980864062215 ], [ 105.854105736923287, 20.257979931370688 ], [ 105.854104254279193, 20.257708868918019 ], [ 105.854199997896004, 20.257708402500633 ], [ 105.854199503631293, 20.257618048350121 ], [ 105.854103760069862, 20.257618514765255 ], [ 105.854102277457969, 20.257347452301289 ], [ 105.854006534060005, 20.257347918657384 ], [ 105.85400851065971, 20.257709335283149 ], [ 105.853817023412688, 20.257710267856595 ], [ 105.853818011507101, 20.257890976172856 ], [ 105.853722267768788, 20.257891442385695 ], [ 105.853722761764644, 20.257981796544669 ], [ 105.853627017968279, 20.257982262707493 ], [ 105.853627511911412, 20.258072616867778 ], [ 105.853723255763171, 20.258072150702695 ], [ 105.85372473777484, 20.258343213171145 ], [ 105.853628993756928, 20.258343679342996 ], [ 105.853629487710819, 20.258434033499515 ], [ 105.853533743634841, 20.258434499621359 ], [ 105.853534237535996, 20.2585248537792 ], [ 105.853438493401953, 20.258525319851017 ], [ 105.853438987250414, 20.258615674010169 ], [ 105.853630475626588, 20.258614741809737 ], [ 105.853629981667368, 20.2585243876551 ], [ 105.853725725796039, 20.258523921478737 ], [ 105.853725231784111, 20.258433567325412 ] ] ] ] } },
{ "type": "Feature", "properties": { "zone": 4, "area_ha": 1.48, "label": "Lô 4 — thưa — đất trống/công trình", "ndvi_change": 0.07 }, "geometry": { "type": "MultiPolygon", "coordinates": [ [ [ [ 105.855242785715262, 20.255805831623054 ], [ 105.855243280535461, 20.255896185767547 ], [ 105.855051795573473, 20.255897119609525 ], [ 105.855052290285599, 20.2559874737576 ], [ 105.855339517890684, 20.255986072909455 ], [ 105.855338528136855, 20.255805364625928 ], [ 105.855242785715262, 20.255805831623054 ] ] ], [ [ [ 105.854670803595823, 20.256260403289129 ], [ 105.854670309097173, 20.256170049134848 ], [ 105.854766051756371, 20.256169582442261 ], [ 105.854765557205013, 20.256079228289288 ], [ 105.854669814601181, 20.256079694979615 ], [ 105.854669320107874, 20.255989340823447 ], [ 105.854477835002896, 20.255990274042791 ], [ 105.854478329385444, 20.256080628203485 ], [ 105.854382586773553, 20.256081094737024 ], [ 105.854383575435932, 20.256261803060095 ], [ 105.854479318158582, 20.256261336522037 ], [ 105.854479812549187, 20.256351690679899 ], [ 105.85457555532453, 20.256351224087322 ], [ 105.85457506087856, 20.256260869931719 ], [ 105.854670803595823, 20.256260403289129 ] ] ], [ [ [ 105.853236143574904, 20.256538459999003 ], [ 105.85323663725363, 20.256628814183387 ], [ 105.853523866174655, 20.256627416266845 ], [ 105.853522384648144, 20.256356353731178 ], [ 105.853426641843285, 20.256356819748852 ], [ 105.853426148061857, 20.25626646556616 ], [ 105.853234662554868, 20.256267397440208 ], [ 105.853235156225523, 20.256357751627412 ], [ 105.853139413412634, 20.256358217488298 ], [ 105.853140400651242, 20.256538925864401 ], [ 105.853236143574904, 20.256538459999003 ] ], [ [ 105.85333089903574, 20.25635728571427 ], [ 105.853331392764474, 20.256447639898276 ], [ 105.853235649898878, 20.256448105813675 ], [ 105.853235156225523, 20.256357751627412 ], [ 105.85333089903574, 20.25635728571427 ] ] ], [ [ [ 105.85400109863221, 20.256354022858833 ], [ 105.853905355840766, 20.256354489137834 ], [ 105.853904861782439, 20.256264134966418 ], [ 105.853713376302252, 20.256265067363103 ], [ 105.85371387024982, 20.25635542153903 ], [ 105.853618127450318, 20.256355887661236 ], [ 105.853619609142967, 20.256626950190139 ], [ 105.853906838031833, 20.256625551646422 ], [ 105.853906343965448, 20.256535197477831 ], [ 105.854002086867652, 20.256534731194325 ], [ 105.85400109863221, 20.256354022858833 ] ] ], [ [ [ 105.852852678409675, 20.256449968952662 ], [ 105.853044164159641, 20.256449037487698 ], [ 105.853043670597046, 20.25635868329692 ], [ 105.852564956478943, 20.25636101155607 ], [ 105.85256544976464, 20.256451365758117 ], [ 105.852469706877599, 20.256451831255404 ], [ 105.852470693346248, 20.256632539661187 ], [ 105.852566436344063, 20.256632074159388 ], [ 105.852565943053008, 20.256541719959223 ], [ 105.852853171864183, 20.256540323147 ], [ 105.852852678409675, 20.256449968952662 ] ] ], [ [ [ 105.854865751363533, 20.256891948869185 ], [ 105.854863772866736, 20.256530532290839 ], [ 105.85448080133844, 20.25653239899281 ], [ 105.854481295737088, 20.256622753147845 ], [ 105.854577038678556, 20.256622286548488 ], [ 105.854579016521541, 20.256983703150187 ], [ 105.8547705028395, 20.256982769776609 ], [ 105.854770008263955, 20.25689241563212 ], [ 105.854865751363533, 20.256891948869185 ] ] ], [ [ [ 105.852568902839479, 20.257083845146088 ], [ 105.8525674229342, 20.256812782556896 ], [ 105.852471679825626, 20.256813248063203 ], [ 105.852470693346248, 20.256632539661187 ], [ 105.852374950345791, 20.256633005110722 ], [ 105.852374457165496, 20.256542650906049 ], [ 105.852182971267268, 20.256543581643822 ], [ 105.852183957409011, 20.256724290061229 ], [ 105.852375443528757, 20.256723359314453 ], [ 105.852377909483764, 20.257175130318974 ], [ 105.852473652816528, 20.257174664855917 ], [ 105.852473159564795, 20.257084310659152 ], [ 105.852568902839479, 20.257083845146088 ] ] ], [ [ [ 105.852762363068464, 20.257444330717526 ], [ 105.852761376219306, 20.257263622342222 ], [ 105.852474146070946, 20.257265019051747 ], [ 105.852475132587813, 20.257445727440572 ], [ 105.85237938908891, 20.257446192910386 ], [ 105.852380375505732, 20.257626901299954 ], [ 105.852476119115394, 20.257626435825635 ], [ 105.852476612383214, 20.257716790016751 ], [ 105.852859587016667, 20.25771492758777 ], [ 105.852858106556667, 20.257443865038645 ], [ 105.852762363068464, 20.257444330717526 ] ] ], [ [ [ 105.855059711289854, 20.257342785865688 ], [ 105.854963967918749, 20.257343252744448 ], [ 105.854963473221716, 20.257252898608247 ], [ 105.854676243258425, 20.257254298924149 ], [ 105.854678715939741, 20.257706069629656 ], [ 105.85496594673377, 20.25770466927986 ], [ 105.854965452025979, 20.257614315147418 ], [ 105.855061195563238, 20.257613848261876 ], [ 105.855059711289854, 20.257342785865688 ] ] ], [ [ [ 105.854484262185366, 20.257164878058298 ], [ 105.854388518908905, 20.25716534461894 ], [ 105.854389013270975, 20.257255698769651 ], [ 105.854197526599251, 20.257256631738656 ], [ 105.854198020853232, 20.25734698589293 ], [ 105.854102277457969, 20.257347452301289 ], [ 105.854103760069862, 20.257618514765255 ], [ 105.854199503631293, 20.257618048350121 ], [ 105.854199997896004, 20.257708402500633 ], [ 105.854104254279193, 20.257708868918019 ], [ 105.854106231143362, 20.258070285519686 ], [ 105.85429771881735, 20.258069352614573 ], [ 105.85429722448653, 20.257978998470083 ], [ 105.854488712039014, 20.257978065360408 ], [ 105.854484262185366, 20.257164878058298 ] ] ] ] } }
]
}
